{"type":"FeatureCollection","features":[{"type":"Feature","properties":{"name":"Mount Webb","source":"AllTrails","startTime":"2026-08-02T16:52:12Z","endTime":"2026-08-02T21:47:36Z"},"geometry":{"type":"LineString","coordinates":[[-121.47048,49.05147,1505.22],[-121.47052,49.05149,1505.18],[-121.47056,49.0515,1504.76],[-121.47059,49.05149,1504.24],[-121.47056,49.0515,1504.76],[-121.4705,49.05151,1506.15],[-121.47044,49.05152,1507.71],[-121.47038,49.05153,1509.39],[-121.47033,49.05154,1510.97],[-121.47038,49.05155,1510.26],[-121.47043,49.05156,1509.44],[-121.47039,49.05157,1510.86],[-121.47032,49.05159,1513.68],[-121.47027,49.05159,1515.08],[-121.47023,49.0516,1516.84],[-121.47018,49.05161,1519.02],[-121.47013,49.05162,1521.35],[-121.47008,49.05163,1523.82],[-121.47002,49.05164,1526.79],[-121.46998,49.05165,1529.28],[-121.46994,49.05166,1531.94],[-121.46989,49.05168,1535.05],[-121.46984,49.05168,1537.19],[-121.46979,49.05168,1539.34],[-121.46974,49.05167,1541.29],[-121.46971,49.05163,1538.25],[-121.46967,49.05161,1537.22],[-121.46962,49.05159,1536.63],[-121.46957,49.05161,1540.18],[-121.46955,49.05163,1542.74],[-121.46954,49.05166,1545.94],[-121.46954,49.05169,1547.12],[-121.46953,49.05173,1548.3],[-121.46952,49.05178,1549.73],[-121.4695,49.05181,1551.01],[-121.46945,49.05183,1552.95],[-121.46941,49.05185,1554.49],[-121.46938,49.05187,1555.75],[-121.46933,49.05189,1557.51],[-121.46929,49.05192,1559.28],[-121.46926,49.05194,1560.54],[-121.46922,49.05197,1561.9],[-121.46919,49.05199,1562.88],[-121.46916,49.05202,1563.98],[-121.46913,49.05204,1564.96],[-121.46909,49.05202,1565.7],[-121.46905,49.052,1566.37],[-121.46903,49.05197,1566.36],[-121.469,49.05194,1566.51],[-121.46897,49.05192,1566.76],[-121.46893,49.05189,1567.07],[-121.46889,49.05188,1567.81],[-121.46884,49.05188,1569.17],[-121.46881,49.05191,1570.58],[-121.46879,49.05194,1571.76],[-121.46876,49.05196,1573.05],[-121.46872,49.05198,1574.63],[-121.46868,49.05199,1576.0],[-121.46864,49.05199,1577.15],[-121.4686,49.05199,1578.32],[-121.46856,49.05198,1579.29],[-121.46855,49.05195,1578.89],[-121.46853,49.05192,1578.67],[-121.46851,49.05189,1578.4],[-121.46849,49.05186,1578.09],[-121.46848,49.05183,1577.5],[-121.46854,49.05181,1575.41],[-121.46859,49.05179,1573.63],[-121.46858,49.05176,1573.1],[-121.46854,49.05173,1573.25],[-121.46851,49.05171,1573.39],[-121.46847,49.05169,1573.72],[-121.46844,49.05166,1573.45],[-121.4684,49.05164,1573.55],[-121.46837,49.05161,1573.02],[-121.46834,49.05158,1572.44],[-121.46832,49.05155,1571.87],[-121.46829,49.05152,1571.84],[-121.46827,49.05149,1571.49],[-121.46824,49.05146,1571.59],[-121.46822,49.05143,1571.34],[-121.4682,49.05138,1570.52],[-121.46819,49.05134,1569.87],[-121.46817,49.05131,1569.95],[-121.46814,49.05127,1570.23],[-121.46812,49.05124,1570.34],[-121.4681,49.0512,1570.21],[-121.46808,49.05117,1570.36],[-121.46806,49.05114,1570.52],[-121.46803,49.05111,1571.62],[-121.46801,49.05108,1571.85],[-121.46798,49.05106,1573.11],[-121.46795,49.05103,1574.03],[-121.46791,49.05102,1576.32],[-121.46789,49.05098,1576.29],[-121.46787,49.05095,1576.61],[-121.46783,49.05093,1578.63],[-121.46781,49.0509,1578.98],[-121.46778,49.05088,1580.36],[-121.46783,49.05086,1576.31],[-121.46786,49.05084,1573.6],[-121.46783,49.05081,1574.47],[-121.46781,49.05078,1574.56],[-121.46779,49.05075,1574.6],[-121.46778,49.05071,1573.53],[-121.46777,49.05068,1572.81],[-121.46775,49.05065,1572.68],[-121.46774,49.05062,1572.0],[-121.46773,49.05057,1570.52],[-121.46769,49.05056,1572.55],[-121.46766,49.05053,1573.04],[-121.46763,49.0505,1573.42],[-121.46759,49.0505,1575.75],[-121.46755,49.05048,1577.06],[-121.4675,49.05047,1579.38],[-121.46746,49.05046,1580.66],[-121.46743,49.05044,1580.93],[-121.46738,49.05043,1582.64],[-121.46734,49.05041,1583.33],[-121.46729,49.0504,1585.0],[-121.46724,49.05039,1586.67],[-121.4672,49.05038,1587.94],[-121.46716,49.05036,1588.76],[-121.46712,49.05035,1590.2],[-121.46708,49.05034,1591.69],[-121.46703,49.05032,1593.29],[-121.46701,49.05031,1593.87],[-121.46696,49.05029,1595.66],[-121.46694,49.05033,1598.35],[-121.46693,49.05036,1600.13],[-121.46696,49.05038,1599.31],[-121.46701,49.0504,1597.82],[-121.46705,49.05043,1597.37],[-121.46706,49.05046,1598.34],[-121.46705,49.05049,1600.16],[-121.46705,49.05053,1602.01],[-121.46705,49.05056,1603.3],[-121.46704,49.05059,1604.34],[-121.46703,49.05061,1605.17],[-121.46702,49.05058,1604.85],[-121.46698,49.0506,1606.8],[-121.46696,49.05063,1608.29],[-121.46695,49.05067,1609.67],[-121.46694,49.0507,1610.78],[-121.46693,49.05072,1611.61],[-121.46692,49.05075,1612.69],[-121.46688,49.05075,1613.99],[-121.46685,49.05074,1614.71],[-121.46681,49.05074,1616.0],[-121.46681,49.05075,1616.26],[-121.46681,49.0508,1617.52],[-121.4668,49.05083,1618.6],[-121.4668,49.05086,1619.26],[-121.46677,49.05088,1620.7],[-121.46677,49.0509,1621.15],[-121.46676,49.05093,1622.18],[-121.46675,49.05096,1623.22],[-121.46674,49.05099,1624.27],[-121.46674,49.05102,1624.97],[-121.46674,49.05105,1625.67],[-121.46673,49.05108,1626.76],[-121.46673,49.0511,1627.23],[-121.46673,49.05113,1627.87],[-121.46673,49.05116,1628.48],[-121.46673,49.05119,1629.09],[-121.46673,49.05122,1629.7],[-121.46673,49.05124,1630.11],[-121.46674,49.05127,1630.19],[-121.46681,49.05128,1626.7],[-121.46682,49.0513,1626.44],[-121.46683,49.05133,1626.27],[-121.46685,49.05136,1625.46],[-121.46687,49.05139,1624.6],[-121.46685,49.05141,1626.54],[-121.46682,49.05143,1629.05],[-121.4668,49.05141,1629.56],[-121.46679,49.05138,1629.31],[-121.46675,49.05136,1631.36],[-121.46669,49.05136,1634.9],[-121.46663,49.05136,1638.46],[-121.46659,49.05135,1640.56],[-121.46655,49.05134,1642.61],[-121.4665,49.05133,1645.21],[-121.46646,49.05133,1647.53],[-121.46643,49.0513,1648.15],[-121.46642,49.05126,1647.2],[-121.46641,49.05123,1646.59],[-121.46637,49.05121,1647.69],[-121.46633,49.0512,1648.92],[-121.46628,49.0512,1650.96],[-121.46625,49.0512,1652.18],[-121.4662,49.05121,1654.64],[-121.46615,49.05122,1657.11],[-121.4662,49.05122,1655.06],[-121.46623,49.05121,1653.41],[-121.46623,49.05118,1652.16],[-121.46617,49.05117,1654.17],[-121.46612,49.05117,1656.19],[-121.46607,49.05117,1658.17],[-121.46603,49.05117,1659.76],[-121.46598,49.05117,1661.74],[-121.46594,49.05116,1662.89],[-121.46589,49.05115,1664.44],[-121.46585,49.05115,1666.02],[-121.46581,49.05112,1666.06],[-121.4658,49.05108,1664.49],[-121.46579,49.05104,1662.88],[-121.46577,49.05101,1662.01],[-121.46573,49.05099,1662.15],[-121.4657,49.05097,1661.99],[-121.46566,49.05095,1662.09],[-121.46562,49.05093,1662.17],[-121.46559,49.05091,1661.96],[-121.46556,49.05094,1664.26],[-121.46552,49.05094,1665.96],[-121.46548,49.05092,1666.72],[-121.46543,49.05091,1668.41],[-121.46538,49.0509,1670.1],[-121.46535,49.05089,1670.89],[-121.46532,49.05087,1671.14],[-121.46528,49.05086,1672.34],[-121.46524,49.05085,1674.44],[-121.4652,49.05083,1676.19],[-121.46515,49.05082,1679.18],[-121.46511,49.0508,1680.96],[-121.46508,49.05078,1681.98],[-121.46504,49.05076,1683.53],[-121.465,49.05074,1684.96],[-121.46497,49.05072,1685.55],[-121.46493,49.0507,1686.8],[-121.46489,49.05068,1688.18],[-121.46485,49.05066,1689.68],[-121.46481,49.05064,1691.31],[-121.46478,49.05063,1692.79],[-121.46474,49.05061,1694.62],[-121.46473,49.05056,1693.61],[-121.46472,49.05053,1693.47],[-121.46471,49.0505,1693.22],[-121.46467,49.0505,1695.27],[-121.46472,49.05051,1692.97],[-121.46468,49.0505,1694.76],[-121.46468,49.05049,1694.51],[-121.46465,49.05046,1695.32],[-121.46462,49.05045,1696.63],[-121.46458,49.05043,1698.24],[-121.46455,49.05041,1699.34],[-121.46452,49.05039,1700.45],[-121.46448,49.05037,1702.11],[-121.46444,49.05035,1703.75],[-121.4644,49.05033,1705.06],[-121.46436,49.05031,1706.47],[-121.46433,49.0503,1707.67],[-121.46429,49.05028,1709.25],[-121.46426,49.05026,1710.31],[-121.46423,49.05025,1711.5],[-121.46418,49.05023,1713.37],[-121.46414,49.0502,1714.49],[-121.46411,49.05019,1715.56],[-121.46408,49.05017,1716.36],[-121.46405,49.05015,1717.12],[-121.46401,49.05012,1717.96],[-121.46398,49.0501,1718.61],[-121.46395,49.05007,1718.9],[-121.46394,49.05004,1718.38],[-121.46392,49.05001,1718.19],[-121.46389,49.04998,1718.17],[-121.46385,49.04996,1718.52],[-121.46381,49.04994,1718.83],[-121.46376,49.04993,1719.82],[-121.46372,49.04992,1720.52],[-121.46369,49.0499,1720.51],[-121.46366,49.04987,1720.06],[-121.46362,49.04985,1720.28],[-121.46358,49.04983,1720.44],[-121.46355,49.04981,1720.33],[-121.46352,49.04979,1720.22],[-121.46348,49.04977,1720.37],[-121.46344,49.04975,1720.51],[-121.46347,49.04977,1720.62],[-121.4635,49.0498,1721.16],[-121.46347,49.04977,1720.62],[-121.46345,49.04974,1719.83],[-121.46344,49.04971,1718.88],[-121.46343,49.04968,1718.09],[-121.46341,49.04965,1717.58],[-121.46338,49.04962,1717.39],[-121.46335,49.0496,1717.57],[-121.46333,49.04957,1717.18],[-121.46332,49.04954,1716.54],[-121.46329,49.04951,1716.56],[-121.46325,49.04948,1716.89],[-121.46321,49.04946,1717.52],[-121.46316,49.04943,1718.25],[-121.46313,49.0494,1718.5],[-121.46312,49.04936,1717.88],[-121.46314,49.04933,1716.42],[-121.46316,49.04929,1714.65],[-121.46319,49.04926,1712.7],[-121.4632,49.04923,1711.48],[-121.46319,49.0492,1711.09],[-121.46315,49.04918,1712.26],[-121.46311,49.04916,1713.5],[-121.46308,49.04914,1714.36],[-121.46304,49.04913,1715.94],[-121.46302,49.0491,1716.25],[-121.46302,49.04906,1715.41],[-121.46301,49.04903,1715.26],[-121.463,49.049,1715.12],[-121.46299,49.04897,1714.99],[-121.46298,49.04894,1714.86],[-121.46296,49.04891,1715.25],[-121.46294,49.04888,1715.87],[-121.46293,49.04885,1716.54],[-121.46292,49.04882,1717.21],[-121.46292,49.04878,1717.42],[-121.46291,49.04875,1718.07],[-121.4629,49.04871,1718.77],[-121.46289,49.04869,1719.35],[-121.46285,49.04866,1721.4],[-121.46284,49.04863,1722.0],[-121.46282,49.0486,1723.28],[-121.4628,49.04857,1724.88],[-121.46277,49.04855,1726.58],[-121.46275,49.04852,1727.84],[-121.46273,49.04849,1729.04],[-121.46272,49.04846,1729.89],[-121.4627,49.04843,1730.98],[-121.46269,49.0484,1731.76],[-121.46268,49.04837,1732.51],[-121.46266,49.04833,1733.66],[-121.46265,49.0483,1734.92],[-121.46263,49.04827,1736.32],[-121.46262,49.04824,1737.49],[-121.4626,49.04821,1738.75],[-121.46258,49.04818,1739.93],[-121.46255,49.04816,1740.85],[-121.46249,49.04815,1741.74],[-121.46244,49.04813,1742.75],[-121.4624,49.04811,1743.48],[-121.46237,49.04808,1744.14],[-121.46236,49.04805,1744.71],[-121.46236,49.04802,1745.85],[-121.46234,49.04799,1746.96],[-121.4623,49.04797,1747.62],[-121.46226,49.04795,1748.16],[-121.46222,49.04792,1748.95],[-121.4622,49.04796,1748.23],[-121.46215,49.04796,1749.3],[-121.46212,49.04794,1750.44],[-121.46207,49.04795,1751.25],[-121.46203,49.04797,1751.67],[-121.4621,49.04795,1750.62],[-121.46215,49.04795,1749.56],[-121.46215,49.0479,1750.86],[-121.46216,49.04785,1751.99],[-121.46215,49.04782,1752.94],[-121.46212,49.04779,1754.17],[-121.46209,49.04777,1755.4],[-121.46206,49.04775,1757.06],[-121.46203,49.04774,1758.07],[-121.46201,49.04771,1760.13],[-121.46199,49.04774,1758.59],[-121.46198,49.04777,1756.95],[-121.46199,49.04774,1758.59],[-121.46199,49.04771,1760.37],[-121.46198,49.04769,1761.67],[-121.46197,49.04767,1762.95],[-121.46196,49.04764,1764.8],[-121.46194,49.04762,1766.23],[-121.46192,49.04759,1768.45],[-121.46191,49.04757,1769.75],[-121.4619,49.04754,1771.48],[-121.46189,49.04751,1773.1],[-121.46189,49.04748,1774.71],[-121.46188,49.04746,1775.96],[-121.46184,49.04743,1778.19],[-121.46181,49.0474,1780.37],[-121.46179,49.04738,1781.87],[-121.46177,49.04735,1784.0],[-121.46175,49.04733,1785.57],[-121.46174,49.04731,1786.98],[-121.46172,49.04729,1788.6],[-121.46171,49.04727,1790.05],[-121.4617,49.04725,1791.52],[-121.46169,49.04722,1793.61],[-121.46167,49.04719,1795.55],[-121.46166,49.04716,1797.3],[-121.46164,49.04713,1799.32],[-121.46162,49.04711,1800.87],[-121.46156,49.0471,1802.97],[-121.4615,49.04709,1805.12],[-121.46147,49.04707,1807.08],[-121.46143,49.04705,1809.38],[-121.46139,49.04704,1811.12],[-121.46134,49.04702,1813.83],[-121.4613,49.047,1816.22],[-121.46127,49.04698,1818.3],[-121.46126,49.04695,1820.38],[-121.46125,49.04692,1822.5],[-121.46125,49.0469,1823.72],[-121.46125,49.04688,1824.94],[-121.46129,49.04686,1825.02],[-121.46135,49.04686,1823.29],[-121.46137,49.04683,1824.55],[-121.46137,49.0468,1826.38],[-121.46134,49.04677,1829.08],[-121.46131,49.04675,1831.17],[-121.46128,49.04673,1833.26],[-121.46126,49.0467,1835.67],[-121.46122,49.04668,1838.05],[-121.4612,49.04666,1839.57],[-121.46116,49.04664,1841.06],[-121.46112,49.04662,1842.44],[-121.46108,49.0466,1843.18],[-121.46105,49.04657,1843.83],[-121.46104,49.04653,1844.48],[-121.46103,49.04649,1845.13],[-121.461,49.04647,1845.63],[-121.46097,49.04645,1846.14],[-121.46094,49.04644,1846.5],[-121.46091,49.04641,1847.14],[-121.46089,49.04638,1848.22],[-121.46087,49.04636,1849.79],[-121.46086,49.04633,1852.01],[-121.46083,49.0463,1854.51],[-121.46082,49.04627,1856.94],[-121.4608,49.04624,1859.59],[-121.46083,49.04622,1860.24],[-121.4609,49.04621,1860.09],[-121.46092,49.04618,1861.95],[-121.46089,49.04615,1864.44],[-121.46085,49.04612,1867.12],[-121.46082,49.0461,1868.69],[-121.46079,49.04608,1870.11],[-121.46075,49.04606,1871.85],[-121.46072,49.04603,1874.09],[-121.4607,49.046,1876.26],[-121.46069,49.04598,1877.68],[-121.46066,49.04595,1880.35],[-121.46063,49.04593,1882.57],[-121.4606,49.0459,1885.59],[-121.46057,49.04592,1885.27],[-121.46053,49.04593,1886.06],[-121.4605,49.0459,1889.29],[-121.46048,49.04587,1892.02],[-121.46046,49.04585,1894.02],[-121.46045,49.04582,1896.01],[-121.46045,49.04579,1897.35],[-121.46044,49.04576,1898.94],[-121.46043,49.04574,1900.04],[-121.46042,49.0457,1901.95],[-121.46042,49.04568,1902.79],[-121.46039,49.0457,1902.56],[-121.46039,49.04573,1901.39],[-121.46034,49.04573,1902.54],[-121.4603,49.04574,1903.16],[-121.46026,49.04573,1904.37],[-121.46023,49.04571,1905.55],[-121.4602,49.04569,1906.65],[-121.46017,49.04566,1907.89],[-121.46015,49.04565,1908.44],[-121.46012,49.04563,1909.32],[-121.46005,49.04563,1910.41],[-121.45999,49.04562,1911.22],[-121.45996,49.0456,1911.21],[-121.45996,49.04557,1911.55],[-121.45993,49.04555,1911.61],[-121.45989,49.04553,1911.72],[-121.45987,49.04548,1912.57],[-121.45984,49.04546,1912.71],[-121.4598,49.04544,1912.76],[-121.45976,49.04543,1912.59],[-121.4597,49.04543,1911.69],[-121.45964,49.04543,1910.14],[-121.45958,49.04542,1908.64],[-121.45952,49.04542,1907.04],[-121.45955,49.04545,1907.77],[-121.45955,49.04549,1907.68],[-121.45955,49.04555,1907.53],[-121.45954,49.04559,1907.04],[-121.45954,49.04563,1906.66],[-121.45954,49.04567,1906.27],[-121.45954,49.0457,1905.98],[-121.45949,49.04573,1905.19],[-121.45944,49.04576,1904.46],[-121.4594,49.04578,1903.68],[-121.45937,49.04581,1903.05],[-121.45935,49.04584,1902.74],[-121.45931,49.04587,1902.72],[-121.45928,49.04589,1902.73],[-121.45924,49.04592,1902.91],[-121.4592,49.04594,1902.98],[-121.45916,49.04596,1903.03],[-121.45913,49.04598,1902.76],[-121.4591,49.04601,1902.64],[-121.45907,49.04605,1902.63],[-121.45905,49.04608,1902.62],[-121.45902,49.04611,1902.23],[-121.45899,49.04614,1901.25],[-121.45896,49.04617,1900.45],[-121.45892,49.0462,1899.65],[-121.45889,49.04623,1899.3],[-121.45885,49.04626,1898.77],[-121.45882,49.04629,1898.44],[-121.45879,49.04631,1898.01],[-121.45876,49.04635,1897.8],[-121.45873,49.04638,1897.47],[-121.4587,49.04641,1896.93],[-121.45867,49.04644,1896.41],[-121.45865,49.04648,1896.22],[-121.45863,49.04651,1896.1],[-121.45868,49.04654,1896.77],[-121.45872,49.04657,1897.12],[-121.45875,49.0466,1897.24],[-121.45873,49.04664,1897.05],[-121.4587,49.04667,1897.1],[-121.45868,49.0467,1898.02],[-121.45865,49.04673,1898.99],[-121.45863,49.04674,1899.34],[-121.45863,49.04677,1900.3],[-121.45862,49.0468,1901.29],[-121.45861,49.04683,1902.3],[-121.45859,49.04686,1903.45],[-121.45855,49.04688,1904.54],[-121.4585,49.04688,1905.05],[-121.45845,49.04689,1905.99],[-121.4584,49.0469,1906.99],[-121.45836,49.04692,1908.43],[-121.45834,49.04695,1909.96],[-121.45833,49.04698,1910.36],[-121.45832,49.04701,1910.63],[-121.45829,49.04704,1910.89],[-121.45824,49.04706,1911.08],[-121.4582,49.04708,1911.43],[-121.45819,49.0471,1911.87],[-121.45818,49.04713,1912.56],[-121.45816,49.04716,1913.36],[-121.45814,49.04719,1914.26],[-121.45811,49.04715,1913.38],[-121.4581,49.04712,1912.56],[-121.45805,49.04713,1913.03],[-121.45801,49.04712,1912.78],[-121.45797,49.04714,1913.78],[-121.45794,49.04717,1915.45],[-121.45792,49.04719,1916.72],[-121.45788,49.04722,1919.03],[-121.45786,49.04724,1920.2],[-121.45784,49.04726,1921.4],[-121.45782,49.04729,1923.12],[-121.4578,49.04732,1924.95],[-121.45779,49.04735,1926.6],[-121.45778,49.04739,1928.77],[-121.45777,49.04742,1930.3],[-121.45773,49.04743,1931.02],[-121.45771,49.04746,1932.79],[-121.45769,49.04749,1934.69],[-121.45768,49.04752,1936.16],[-121.45766,49.04755,1937.62],[-121.45763,49.04758,1939.33],[-121.45761,49.04761,1940.94],[-121.4576,49.04764,1942.39],[-121.45758,49.04767,1944.1],[-121.45757,49.0477,1945.63],[-121.45755,49.04773,1947.45],[-121.45754,49.04776,1949.05],[-121.45752,49.0478,1951.24],[-121.45751,49.04783,1952.61],[-121.45749,49.04786,1953.81],[-121.45747,49.04789,1954.65],[-121.45745,49.04792,1955.59],[-121.45743,49.04795,1956.63],[-121.45741,49.04798,1957.75],[-121.4574,49.04801,1959.01],[-121.45738,49.04804,1960.29],[-121.45735,49.04806,1961.08],[-121.45733,49.0481,1961.84],[-121.45731,49.04813,1962.44],[-121.45729,49.04816,1963.07],[-121.45726,49.04813,1962.54],[-121.45723,49.04811,1962.17],[-121.45725,49.04814,1962.76],[-121.4573,49.04815,1962.85],[-121.45734,49.04817,1963.12],[-121.45734,49.0482,1963.68],[-121.45734,49.04823,1964.24],[-121.45734,49.04826,1964.79],[-121.45732,49.0483,1965.66],[-121.4573,49.04832,1966.18],[-121.45728,49.04835,1967.0],[-121.45726,49.04838,1967.96],[-121.45725,49.04841,1968.87],[-121.45725,49.04844,1969.68],[-121.45724,49.04847,1970.65],[-121.45722,49.04851,1972.07],[-121.45721,49.04854,1972.9],[-121.45719,49.04857,1973.73],[-121.45717,49.0486,1974.64],[-121.45715,49.04862,1975.39],[-121.45714,49.04865,1976.77],[-121.45714,49.04869,1978.6],[-121.45713,49.04872,1980.09],[-121.45712,49.04874,1981.18],[-121.45711,49.04877,1982.8],[-121.45708,49.04874,1981.78],[-121.45706,49.04875,1982.63],[-121.45704,49.04879,1985.24],[-121.45703,49.04882,1987.2],[-121.45702,49.04885,1989.23],[-121.45701,49.04887,1990.73],[-121.45698,49.0489,1993.41],[-121.45697,49.04892,1994.74],[-121.45697,49.04894,1995.75],[-121.45696,49.04898,1998.09],[-121.45696,49.049,1999.1],[-121.45693,49.04903,2001.06],[-121.45692,49.04904,2001.54],[-121.45689,49.04907,2002.99],[-121.45687,49.04909,2003.99],[-121.45685,49.04911,2005.01],[-121.45682,49.04913,2006.03],[-121.4568,49.04915,2007.1],[-121.45678,49.04917,2008.15],[-121.45676,49.0492,2009.52],[-121.45675,49.04922,2010.44],[-121.45672,49.04924,2011.38],[-121.4567,49.04922,2010.47],[-121.45667,49.04924,2011.43],[-121.45667,49.04926,2012.36],[-121.4567,49.04928,2013.26],[-121.45675,49.04929,2013.64],[-121.45674,49.04932,2015.03],[-121.4567,49.04935,2016.5],[-121.45667,49.04937,2017.51],[-121.45664,49.04939,2017.78],[-121.45662,49.04942,2018.49],[-121.45662,49.04945,2019.81],[-121.45663,49.04947,2021.28],[-121.45664,49.0495,2023.34],[-121.45663,49.04953,2024.74],[-121.45662,49.04956,2026.14],[-121.4566,49.04959,2027.22],[-121.4566,49.04962,2028.95],[-121.45661,49.04963,2029.85],[-121.45662,49.04966,2031.9],[-121.45663,49.04969,2033.96],[-121.45663,49.04972,2035.68],[-121.45663,49.04975,2038.29],[-121.45663,49.04976,2039.18],[-121.45663,49.04979,2041.86],[-121.45663,49.04983,2045.43],[-121.45663,49.04984,2046.32],[-121.45662,49.04987,2048.79],[-121.45659,49.0499,2050.94],[-121.45652,49.0499,2049.64],[-121.45648,49.04992,2050.91],[-121.45648,49.04994,2052.93],[-121.45646,49.04997,2055.69],[-121.45646,49.05,2058.77],[-121.45645,49.05003,2061.3],[-121.45644,49.05006,2063.89],[-121.45644,49.0501,2067.45],[-121.45642,49.05013,2070.14],[-121.4564,49.05015,2072.01],[-121.45636,49.05017,2073.48],[-121.45632,49.05019,2074.8],[-121.4563,49.05021,2076.46],[-121.45628,49.05024,2079.13],[-121.45626,49.05026,2080.85],[-121.45623,49.05029,2082.59],[-121.4562,49.05032,2083.14],[-121.45618,49.05034,2083.6],[-121.45615,49.05037,2084.41],[-121.45612,49.0504,2085.4],[-121.4561,49.05042,2086.02],[-121.45608,49.05045,2087.01],[-121.45606,49.05048,2088.11],[-121.45604,49.0505,2088.9],[-121.45602,49.05052,2089.75],[-121.456,49.05055,2091.14],[-121.45598,49.05058,2091.67],[-121.45596,49.05061,2091.85],[-121.45594,49.05064,2091.87],[-121.456,49.05065,2092.42],[-121.45605,49.05066,2093.02],[-121.45605,49.05069,2093.54],[-121.45602,49.05072,2093.53],[-121.45599,49.05074,2093.19],[-121.45597,49.05077,2092.99],[-121.45596,49.05079,2092.86],[-121.45594,49.05082,2092.42],[-121.45592,49.05085,2091.46],[-121.45591,49.05088,2090.56],[-121.45591,49.05091,2089.97],[-121.4559,49.05088,2090.29],[-121.45591,49.05085,2091.15],[-121.45597,49.05085,2092.98],[-121.45602,49.05085,2094.51],[-121.45607,49.05085,2096.03],[-121.4561,49.05086,2096.52],[-121.45609,49.05089,2095.01],[-121.45608,49.05093,2093.17],[-121.45607,49.05096,2091.8],[-121.45607,49.05099,2090.65],[-121.45605,49.05102,2089.29],[-121.45605,49.05106,2087.84],[-121.45604,49.05109,2086.74],[-121.456,49.05111,2086.03],[-121.45599,49.05113,2084.86],[-121.45597,49.05116,2083.1],[-121.45599,49.05117,2082.43],[-121.45601,49.05117,2082.36],[-121.45603,49.0512,2080.39],[-121.45607,49.05121,2079.5],[-121.45615,49.05121,2079.07],[-121.45619,49.05121,2078.89],[-121.4562,49.05117,2081.35],[-121.4562,49.05113,2083.86],[-121.45622,49.05116,2081.82],[-121.45623,49.05119,2079.93],[-121.45622,49.05122,2078.14],[-121.45622,49.05125,2076.3],[-121.45622,49.05128,2074.46],[-121.45621,49.05131,2072.6],[-121.45619,49.05134,2070.66],[-121.4562,49.05135,2070.08],[-121.45625,49.05137,2069.12],[-121.4563,49.05137,2069.42],[-121.45635,49.05135,2070.78],[-121.45636,49.05132,2072.39],[-121.45638,49.05129,2073.98],[-121.45643,49.05128,2071.79],[-121.45647,49.05129,2068.41],[-121.45651,49.0513,2064.76],[-121.45645,49.05131,2068.38],[-121.4564,49.05131,2072.14],[-121.45645,49.0513,2069.08],[-121.4565,49.05129,2066.34],[-121.45645,49.0513,2069.08],[-121.45642,49.05132,2070.03],[-121.45638,49.05134,2071.43],[-121.45634,49.05134,2071.27],[-121.45628,49.05134,2071.02],[-121.45623,49.05134,2070.82],[-121.45625,49.05131,2072.69],[-121.45625,49.05128,2074.47],[-121.45626,49.05125,2076.23],[-121.45625,49.05122,2078.03],[-121.45622,49.0512,2079.37],[-121.45622,49.05117,2081.21],[-121.45623,49.05114,2082.96],[-121.45624,49.05111,2084.65],[-121.45625,49.05108,2085.62],[-121.45628,49.05105,2086.28],[-121.45632,49.05103,2086.37],[-121.45638,49.05102,2085.76],[-121.45642,49.051,2085.68],[-121.45644,49.05097,2086.14],[-121.45644,49.05094,2086.92],[-121.45641,49.05097,2086.68],[-121.45637,49.05096,2087.7],[-121.45638,49.05093,2088.4],[-121.45639,49.0509,2089.06],[-121.45642,49.05087,2089.22],[-121.45645,49.05085,2089.03],[-121.45648,49.05082,2088.59],[-121.45651,49.05079,2087.66],[-121.45654,49.05077,2086.9],[-121.45656,49.05074,2086.38],[-121.45658,49.05071,2085.94],[-121.4566,49.05069,2085.58],[-121.45663,49.05066,2085.14],[-121.45665,49.05063,2084.93],[-121.45667,49.05061,2084.71],[-121.45669,49.05058,2084.24],[-121.45672,49.05055,2083.36],[-121.45672,49.05059,2083.34],[-121.45673,49.05062,2082.94],[-121.45673,49.05065,2082.84],[-121.45668,49.05066,2084.24],[-121.45662,49.05066,2085.28],[-121.45657,49.05066,2085.97],[-121.45653,49.05067,2086.59],[-121.45648,49.05068,2087.4],[-121.45643,49.05068,2088.16],[-121.4564,49.05065,2088.21],[-121.45646,49.05065,2087.41],[-121.45649,49.05062,2086.78],[-121.45649,49.05059,2086.54],[-121.4565,49.05055,2086.12],[-121.45648,49.05057,2086.47],[-121.45645,49.05056,2086.61],[-121.45642,49.05053,2086.48],[-121.45639,49.05051,2086.5],[-121.45637,49.05048,2086.33],[-121.45636,49.05046,2086.13],[-121.45636,49.05043,2085.73],[-121.45635,49.0504,2085.33],[-121.4563,49.05039,2085.16],[-121.45624,49.05039,2085.12],[-121.45622,49.05042,2085.89],[-121.45621,49.05046,2086.99],[-121.45623,49.05044,2086.37],[-121.45623,49.05041,2085.62],[-121.45621,49.05038,2084.83],[-121.45617,49.05037,2084.46],[-121.45614,49.05035,2083.72],[-121.45618,49.05033,2083.3],[-121.45623,49.05033,2083.6],[-121.45624,49.05029,2082.69],[-121.45625,49.05026,2080.74],[-121.45627,49.05023,2078.02],[-121.45629,49.0502,2075.35],[-121.45632,49.05017,2072.88],[-121.45634,49.05015,2071.27],[-121.45637,49.05012,2068.91],[-121.45641,49.0501,2067.4],[-121.45643,49.05009,2066.53],[-121.45645,49.05008,2065.7],[-121.45647,49.05005,2063.19],[-121.45648,49.05002,2060.69],[-121.4565,49.04999,2058.21],[-121.4565,49.04995,2054.23],[-121.4565,49.04991,2050.26],[-121.45653,49.04989,2048.85],[-121.45655,49.04986,2046.37],[-121.45658,49.04983,2044.23],[-121.4566,49.0498,2041.96],[-121.45663,49.04978,2040.97],[-121.45665,49.04976,2039.77],[-121.45667,49.04973,2037.7],[-121.45669,49.04971,2036.45],[-121.4567,49.04969,2035.34],[-121.45664,49.04968,2033.7],[-121.45658,49.04968,2031.76],[-121.45659,49.04965,2030.36],[-121.45656,49.04963,2028.23],[-121.45656,49.0496,2026.5],[-121.45657,49.04957,2025.1],[-121.45658,49.04955,2024.27],[-121.4566,49.04952,2023.19],[-121.45662,49.04949,2022.11],[-121.45663,49.04946,2020.71],[-121.45663,49.04943,2019.2],[-121.45663,49.0494,2017.94],[-121.45665,49.04937,2017.14],[-121.45666,49.04935,2016.45],[-121.45667,49.04932,2015.17],[-121.45667,49.04929,2013.77],[-121.45668,49.04926,2012.35],[-121.45671,49.04923,2010.93],[-121.45672,49.04921,2010.0],[-121.45674,49.04918,2008.61],[-121.45676,49.04915,2007.08],[-121.45678,49.04913,2006.0],[-121.45679,49.0491,2004.37],[-121.4568,49.04907,2002.77],[-121.45681,49.04905,2001.71],[-121.45682,49.04902,2000.13],[-121.45683,49.04905,2001.77],[-121.45686,49.04903,2000.81],[-121.45687,49.049,1999.28],[-121.4569,49.04898,1998.38],[-121.45696,49.04897,1997.58],[-121.45702,49.04897,1995.64],[-121.45704,49.04895,1993.98],[-121.45699,49.04893,1994.6],[-121.45698,49.04891,1993.91],[-121.45699,49.04888,1991.96],[-121.45701,49.04886,1990.12],[-121.45702,49.04884,1988.64],[-121.45703,49.0488,1986.04],[-121.45703,49.04877,1984.28],[-121.45706,49.04875,1982.63],[-121.45708,49.04872,1980.73],[-121.45711,49.0487,1979.36],[-121.45713,49.04868,1978.22],[-121.45715,49.04865,1976.73],[-121.45715,49.04861,1974.96],[-121.45715,49.04857,1973.62],[-121.45716,49.04854,1972.67],[-121.45716,49.04851,1971.68],[-121.45717,49.04848,1970.78],[-121.45718,49.04844,1969.6],[-121.4572,49.04841,1968.92],[-121.45724,49.04839,1968.44],[-121.4573,49.04837,1967.31],[-121.45735,49.04836,1966.63],[-121.45738,49.0484,1967.1],[-121.45741,49.04842,1967.09],[-121.45742,49.04845,1967.44],[-121.45741,49.04848,1968.09],[-121.45738,49.0485,1968.96],[-121.45733,49.04848,1969.42],[-121.45732,49.04848,1969.59],[-121.45735,49.04845,1968.47],[-121.45735,49.04842,1967.86],[-121.45735,49.04838,1967.04],[-121.45735,49.04835,1966.42],[-121.45734,49.04831,1965.72],[-121.45734,49.04828,1965.16],[-121.45734,49.04825,1964.61],[-121.45733,49.04822,1964.09],[-121.45733,49.04818,1963.34],[-121.45733,49.04815,1962.78],[-121.45732,49.04812,1962.23],[-121.45732,49.04808,1961.47],[-121.45731,49.04811,1962.05],[-121.45731,49.04809,1961.67],[-121.45731,49.04805,1960.72],[-121.45731,49.04802,1959.19],[-121.45731,49.04798,1957.16],[-121.45731,49.04794,1955.13],[-121.45732,49.04791,1953.72],[-121.45732,49.04787,1951.72],[-121.45732,49.04784,1950.22],[-121.45733,49.04781,1948.91],[-121.45739,49.0478,1949.61],[-121.45744,49.04779,1950.2],[-121.45749,49.04777,1950.41],[-121.45754,49.04776,1949.05],[-121.45755,49.04779,1950.02],[-121.45753,49.04776,1949.33],[-121.45756,49.04774,1947.62],[-121.45757,49.0477,1945.63],[-121.45758,49.04766,1943.67],[-121.45758,49.04763,1942.39],[-121.45759,49.04763,1942.18],[-121.45762,49.04762,1941.14],[-121.45764,49.04759,1939.54],[-121.45767,49.04758,1938.59],[-121.45765,49.04754,1937.4],[-121.45765,49.04751,1936.23],[-121.45765,49.04747,1933.99],[-121.45765,49.04743,1931.52],[-121.45766,49.0474,1929.64],[-121.45773,49.04738,1928.4],[-121.45778,49.04737,1927.84],[-121.45782,49.04735,1925.66],[-121.45785,49.04732,1923.54],[-121.45789,49.04729,1921.36],[-121.45791,49.04727,1920.2],[-121.45793,49.04724,1918.81],[-121.45795,49.04721,1917.3],[-121.45797,49.04719,1916.07],[-121.458,49.04716,1914.45],[-121.45801,49.0472,1915.94],[-121.45802,49.04718,1915.04],[-121.45804,49.04716,1914.11],[-121.45808,49.04714,1913.23],[-121.45812,49.04714,1913.05],[-121.45816,49.04714,1912.88],[-121.4582,49.04712,1912.28],[-121.45823,49.0471,1911.81],[-121.45826,49.04708,1911.44],[-121.4583,49.04706,1911.19],[-121.45832,49.04702,1910.75],[-121.45833,49.04698,1910.36],[-121.45835,49.04695,1909.82],[-121.45838,49.04693,1908.64],[-121.45842,49.0469,1906.76],[-121.45845,49.04688,1905.56],[-121.4585,49.04687,1904.65],[-121.45857,49.04686,1903.63],[-121.45861,49.04685,1902.95],[-121.45864,49.04683,1902.17],[-121.45866,49.0468,1901.15],[-121.45867,49.04677,1900.19],[-121.45868,49.04674,1899.25],[-121.45868,49.04671,1898.33],[-121.45869,49.04668,1897.4],[-121.45871,49.04665,1897.01],[-121.45873,49.04662,1897.1],[-121.45873,49.04659,1897.16],[-121.45873,49.04654,1897.26],[-121.45873,49.0465,1897.34],[-121.45873,49.04646,1897.42],[-121.45873,49.04642,1897.5],[-121.45874,49.04639,1897.78],[-121.45874,49.04634,1897.26],[-121.45875,49.04631,1897.15],[-121.45877,49.04627,1897.15],[-121.45878,49.04624,1897.04],[-121.4588,49.04621,1897.15],[-121.45882,49.04617,1897.15],[-121.45885,49.04614,1897.47],[-121.4589,49.04613,1898.54],[-121.45897,49.04612,1900.64],[-121.45902,49.0461,1902.05],[-121.45907,49.04608,1903.24],[-121.4591,49.04605,1903.51],[-121.45912,49.04602,1903.41],[-121.45914,49.04599,1903.25],[-121.45915,49.04595,1902.54],[-121.45917,49.04592,1902.22],[-121.45917,49.04589,1901.47],[-121.45918,49.04585,1900.6],[-121.45919,49.04582,1900.34],[-121.4592,49.04578,1900.53],[-121.45923,49.04575,1901.05],[-121.45927,49.04577,1901.66],[-121.45931,49.04579,1902.22],[-121.45935,49.04578,1902.89],[-121.45939,49.04575,1903.7],[-121.45942,49.04571,1904.46],[-121.45945,49.04568,1905.17],[-121.45948,49.04564,1905.83],[-121.45951,49.04561,1906.46],[-121.45954,49.04558,1907.14],[-121.4595,49.04556,1906.76],[-121.4595,49.0456,1906.42],[-121.4595,49.04563,1906.16],[-121.45951,49.0456,1906.55],[-121.45952,49.04556,1907.05],[-121.45952,49.04552,1907.08],[-121.45953,49.04548,1907.27],[-121.45954,49.04544,1907.55],[-121.45961,49.04543,1909.37],[-121.45968,49.04543,1911.17],[-121.45974,49.04543,1912.42],[-121.45979,49.04543,1912.86],[-121.45984,49.04544,1913.1],[-121.45988,49.04546,1913.05],[-121.45992,49.04548,1912.98],[-121.45995,49.04551,1912.59],[-121.45998,49.04553,1912.4],[-121.46001,49.04555,1912.01],[-121.46004,49.04558,1911.24],[-121.46007,49.0456,1910.56],[-121.46009,49.04562,1909.96],[-121.46014,49.04563,1909.01],[-121.46019,49.04564,1908.0],[-121.46022,49.04565,1907.26],[-121.46026,49.04567,1906.03],[-121.46029,49.04567,1905.49],[-121.46033,49.04566,1905.12],[-121.46034,49.04563,1905.99],[-121.46038,49.0456,1906.57],[-121.46042,49.0456,1906.12],[-121.46047,49.04559,1906.02],[-121.46051,49.04558,1906.11],[-121.46055,49.0456,1904.66],[-121.46059,49.04562,1902.7],[-121.46056,49.04563,1902.87],[-121.4605,49.04564,1903.27],[-121.46053,49.04566,1901.79],[-121.46054,49.04567,1901.09],[-121.46056,49.04569,1899.61],[-121.46056,49.04573,1897.43],[-121.46057,49.04576,1895.43],[-121.46058,49.04579,1893.38],[-121.46059,49.04582,1891.27],[-121.4606,49.04584,1889.63],[-121.46062,49.04587,1886.82],[-121.46064,49.0459,1884.14],[-121.46065,49.04593,1881.91],[-121.46067,49.04596,1879.44],[-121.46068,49.04599,1877.37],[-121.4607,49.04602,1875.12],[-121.46072,49.04605,1872.99],[-121.46074,49.04607,1871.52],[-121.46076,49.04609,1870.13],[-121.46079,49.04611,1868.68],[-121.46081,49.04614,1866.32],[-121.46083,49.04616,1864.54],[-121.46085,49.04618,1862.83],[-121.46086,49.04622,1859.85],[-121.46086,49.04626,1857.0],[-121.46087,49.04629,1854.76],[-121.46089,49.04632,1852.45],[-121.46089,49.04635,1850.33],[-121.46091,49.04638,1848.07],[-121.46092,49.04641,1847.07],[-121.46093,49.04644,1846.57],[-121.46094,49.04647,1846.06],[-121.46095,49.0465,1845.56],[-121.46097,49.04653,1844.98],[-121.46099,49.04655,1844.55],[-121.46101,49.04658,1843.98],[-121.46102,49.0466,1843.62],[-121.46106,49.04663,1842.9],[-121.46111,49.04664,1842.39],[-121.46116,49.04665,1840.88],[-121.46118,49.04668,1839.2],[-121.46122,49.04669,1837.44],[-121.46125,49.04672,1834.74],[-121.46125,49.04675,1832.9],[-121.46126,49.04677,1831.39],[-121.46129,49.0468,1828.69],[-121.46133,49.04682,1826.31],[-121.46135,49.04685,1823.9],[-121.46138,49.04687,1821.81],[-121.4614,49.0469,1819.37],[-121.46141,49.04692,1817.83],[-121.46141,49.04695,1815.98],[-121.46142,49.04698,1813.86],[-121.46143,49.047,1812.36],[-121.46143,49.04703,1810.57],[-121.46144,49.04706,1808.5],[-121.46144,49.04708,1807.32],[-121.46145,49.0471,1805.87],[-121.46146,49.04713,1803.85],[-121.46151,49.04715,1801.46],[-121.46157,49.04716,1799.46],[-121.46161,49.04717,1797.97],[-121.46165,49.04719,1796.0],[-121.46169,49.04721,1794.11],[-121.46172,49.04723,1792.36],[-121.46173,49.04726,1790.28],[-121.46173,49.04728,1789.03],[-121.46173,49.0473,1787.78],[-121.46173,49.04733,1785.91],[-121.46173,49.04736,1784.04],[-121.46172,49.04739,1782.32],[-121.46172,49.04741,1781.07],[-121.46172,49.04743,1779.81],[-121.46173,49.04746,1777.81],[-121.46177,49.04749,1775.49],[-121.46182,49.04749,1774.93],[-121.46187,49.04751,1773.35],[-121.46191,49.04753,1771.82],[-121.46194,49.04756,1769.64],[-121.46193,49.04759,1768.19],[-121.46193,49.04761,1767.09],[-121.46192,49.04758,1768.99],[-121.46192,49.0476,1767.92],[-121.46193,49.04763,1765.98],[-121.46192,49.04766,1764.71],[-121.46194,49.04769,1762.25],[-121.46195,49.04771,1760.84],[-121.46197,49.04774,1758.85],[-121.46198,49.04776,1757.54],[-121.462,49.04778,1756.16],[-121.46203,49.04781,1755.08],[-121.46205,49.04784,1754.1],[-121.46207,49.04786,1753.31],[-121.46208,49.04789,1752.44],[-121.46211,49.04792,1751.14],[-121.46213,49.04794,1750.24],[-121.46219,49.04796,1748.44],[-121.46225,49.04797,1747.52],[-121.4623,49.04797,1747.62],[-121.46234,49.048,1746.6],[-121.46237,49.04802,1745.83],[-121.4624,49.04804,1744.99],[-121.46242,49.04806,1744.21],[-121.46246,49.04809,1743.4],[-121.46249,49.04811,1742.71],[-121.46251,49.04815,1741.52],[-121.46252,49.04819,1740.37],[-121.46254,49.04822,1739.29],[-121.46258,49.04825,1737.8],[-121.46261,49.04828,1736.35],[-121.46266,49.04829,1735.09],[-121.4627,49.04829,1734.33],[-121.46272,49.04831,1733.17],[-121.46266,49.04831,1734.37],[-121.46265,49.04834,1733.66],[-121.46266,49.04837,1732.98],[-121.46267,49.0484,1732.26],[-121.46267,49.04844,1731.62],[-121.46268,49.04847,1730.85],[-121.46268,49.04851,1730.19],[-121.46269,49.04854,1729.37],[-121.46271,49.04858,1728.0],[-121.46274,49.0486,1726.58],[-121.46277,49.04863,1725.22],[-121.46279,49.04865,1724.28],[-121.46281,49.04868,1723.22],[-121.46283,49.04871,1722.13],[-121.46285,49.04874,1721.04],[-121.46287,49.04877,1719.92],[-121.46288,49.0488,1719.29],[-121.4629,49.04883,1718.15],[-121.46291,49.04886,1717.49],[-121.46293,49.04889,1716.35],[-121.46294,49.04894,1716.85],[-121.46294,49.04898,1717.66],[-121.46295,49.04901,1717.77],[-121.46299,49.04903,1716.23],[-121.46301,49.04906,1715.89],[-121.46302,49.04908,1715.83],[-121.46304,49.04912,1715.73],[-121.46305,49.04915,1715.9],[-121.46305,49.04918,1716.55],[-121.46307,49.04921,1716.34],[-121.46309,49.04924,1716.19],[-121.4631,49.04927,1716.49],[-121.46311,49.0493,1716.81],[-121.46312,49.04934,1717.39],[-121.46312,49.04937,1718.12],[-121.46313,49.0494,1718.5],[-121.46316,49.04938,1716.96],[-121.46318,49.0494,1716.79],[-121.46321,49.04941,1716.05],[-121.46316,49.0494,1717.48],[-121.46316,49.04944,1718.5],[-121.46317,49.04948,1719.52],[-121.46318,49.04951,1720.22],[-121.46319,49.04955,1721.26],[-121.46323,49.04956,1720.25],[-121.46329,49.04957,1718.54],[-121.46335,49.04959,1717.24],[-121.46335,49.04962,1718.22],[-121.46335,49.04965,1719.21],[-121.46337,49.04968,1719.67],[-121.4634,49.04971,1719.9],[-121.46341,49.04974,1720.84],[-121.46343,49.04976,1721.2],[-121.46346,49.04979,1721.74],[-121.46349,49.04981,1721.84],[-121.46352,49.04984,1722.38],[-121.46357,49.04985,1721.56],[-121.46362,49.04985,1720.28],[-121.46368,49.04986,1719.09],[-121.46372,49.04988,1718.85],[-121.46377,49.04989,1717.9],[-121.46377,49.04992,1719.13],[-121.46376,49.04995,1720.65],[-121.46378,49.04998,1721.32],[-121.46382,49.05001,1721.35],[-121.46385,49.05002,1720.82],[-121.46387,49.05005,1721.23],[-121.46389,49.05009,1721.87],[-121.46391,49.05013,1722.35],[-121.46393,49.05016,1722.45],[-121.46395,49.05019,1722.5],[-121.46399,49.05021,1721.34],[-121.46402,49.05023,1720.56],[-121.46405,49.05026,1720.0],[-121.46409,49.05028,1718.6],[-121.46412,49.0503,1717.26],[-121.46416,49.05032,1715.46],[-121.4642,49.05034,1713.8],[-121.46424,49.05036,1712.25],[-121.46428,49.05037,1710.71],[-121.46432,49.05039,1709.34],[-121.46436,49.0504,1707.92],[-121.46438,49.05037,1706.62],[-121.46441,49.05034,1704.82],[-121.46444,49.05037,1704.17],[-121.46447,49.05039,1703.08],[-121.4645,49.05042,1702.17],[-121.46453,49.05044,1701.06],[-121.46457,49.05046,1699.45],[-121.4646,49.05048,1698.38],[-121.46464,49.0505,1696.8],[-121.46469,49.05051,1694.5],[-121.46471,49.05052,1693.73],[-121.46475,49.05053,1691.49],[-121.46478,49.05054,1689.7],[-121.46475,49.05055,1691.97],[-121.46472,49.05057,1694.58],[-121.46472,49.05059,1695.23],[-121.46476,49.05061,1693.34],[-121.46481,49.05063,1690.92],[-121.46485,49.05065,1689.26],[-121.46489,49.05066,1687.27],[-121.46492,49.05069,1686.9],[-121.46495,49.05071,1686.16],[-121.46498,49.05074,1686.04],[-121.46502,49.05076,1684.79],[-121.46507,49.05077,1682.14],[-121.46511,49.05079,1680.51],[-121.46515,49.05081,1678.75],[-121.46519,49.05083,1676.87],[-121.46524,49.05084,1673.93],[-121.46527,49.05086,1672.96],[-121.46531,49.05088,1672.11],[-121.46534,49.05089,1671.33],[-121.46538,49.05091,1670.62],[-121.46541,49.05092,1669.82],[-121.46546,49.05094,1668.64],[-121.4655,49.05095,1667.36],[-121.46554,49.05097,1666.59],[-121.46558,49.05099,1666.23],[-121.4656,49.051,1666.18],[-121.46565,49.05101,1665.31],[-121.46569,49.05103,1665.18],[-121.46574,49.05104,1664.27],[-121.46578,49.05106,1664.11],[-121.46582,49.05107,1663.45],[-121.46586,49.05109,1662.97],[-121.4659,49.05111,1662.31],[-121.46594,49.05113,1661.59],[-121.46598,49.05115,1660.87],[-121.46602,49.05117,1660.15],[-121.46606,49.05118,1659.0],[-121.46612,49.0512,1657.48],[-121.46617,49.0512,1655.44],[-121.46623,49.05121,1653.41],[-121.46628,49.05122,1651.78],[-121.46633,49.05123,1650.13],[-121.46636,49.05125,1649.7],[-121.4664,49.05127,1648.68],[-121.46642,49.0513,1648.72],[-121.46645,49.05132,1647.75],[-121.46649,49.05134,1646.13],[-121.46653,49.05135,1644.11],[-121.46657,49.05137,1642.35],[-121.46661,49.05138,1640.22],[-121.46665,49.0514,1638.33],[-121.46669,49.05141,1636.2],[-121.46674,49.05142,1633.5],[-121.46678,49.0514,1630.43],[-121.46679,49.05137,1629.16],[-121.46673,49.05136,1632.54],[-121.46673,49.05139,1633.16],[-121.46675,49.0514,1632.26],[-121.46679,49.05139,1629.49],[-121.4668,49.05136,1628.41],[-121.4668,49.05132,1627.82],[-121.46679,49.05128,1627.75],[-121.46679,49.05125,1627.28],[-121.46679,49.05122,1626.82],[-121.46678,49.05119,1626.8],[-121.46678,49.05117,1626.48],[-121.46678,49.05115,1626.15],[-121.46678,49.05111,1625.49],[-121.46679,49.05116,1625.88],[-121.46679,49.05119,1626.35],[-121.46678,49.05116,1626.31],[-121.46677,49.05113,1626.23],[-121.46677,49.05113,1626.23],[-121.46677,49.05117,1626.92],[-121.46677,49.05121,1627.61],[-121.46676,49.05124,1628.62],[-121.46676,49.05119,1627.72],[-121.46676,49.05114,1626.82],[-121.46676,49.05111,1626.28],[-121.46677,49.05107,1624.98],[-121.46677,49.05104,1624.31],[-121.46677,49.05102,1623.86],[-121.46677,49.05099,1623.18],[-121.46677,49.05096,1622.5],[-121.46677,49.05093,1621.83],[-121.46678,49.0509,1620.81],[-121.46677,49.05087,1620.48],[-121.46677,49.05084,1619.8],[-121.46678,49.05081,1618.74],[-121.46678,49.05077,1617.73],[-121.46678,49.05075,1617.23],[-121.46678,49.05072,1616.47],[-121.46679,49.05069,1615.39],[-121.46684,49.0507,1614.02],[-121.46688,49.05072,1613.23],[-121.46692,49.05074,1612.44],[-121.46697,49.05073,1610.36],[-121.46697,49.0507,1609.62],[-121.46696,49.05067,1609.28],[-121.46696,49.05064,1608.53],[-121.46698,49.05061,1607.04],[-121.467,49.05058,1605.58],[-121.46702,49.05055,1604.03],[-121.46703,49.05052,1602.31],[-121.46703,49.05049,1600.96],[-121.46704,49.05046,1599.18],[-121.46703,49.05043,1598.25],[-121.46699,49.0504,1598.74],[-121.46694,49.05039,1600.69],[-121.4669,49.05037,1602.27],[-121.4669,49.05034,1601.27],[-121.46691,49.05031,1599.6],[-121.46695,49.05034,1598.19],[-121.46696,49.05037,1598.9],[-121.467,49.05039,1597.85],[-121.46705,49.0504,1595.98],[-121.46709,49.05041,1594.62],[-121.46713,49.05044,1594.35],[-121.46717,49.05045,1593.16],[-121.46721,49.05046,1592.01],[-121.46725,49.05047,1590.8],[-121.4673,49.05049,1589.65],[-121.46733,49.0505,1588.83],[-121.46738,49.05052,1587.64],[-121.46742,49.05053,1586.34],[-121.46746,49.05055,1585.57],[-121.4675,49.05056,1584.14],[-121.46755,49.05057,1581.44],[-121.4676,49.05058,1578.77],[-121.46764,49.05059,1576.74],[-121.46768,49.05061,1575.13],[-121.46772,49.05063,1573.58],[-121.46776,49.05065,1572.1],[-121.46779,49.05068,1571.61],[-121.46776,49.05073,1575.5],[-121.46773,49.05076,1578.38],[-121.46771,49.05078,1580.25],[-121.46773,49.05081,1580.44],[-121.46775,49.05084,1580.61],[-121.46778,49.05087,1580.04],[-121.46779,49.0509,1580.33],[-121.46781,49.05094,1580.3],[-121.46783,49.05097,1579.95],[-121.46784,49.051,1580.28],[-121.46785,49.05103,1580.62],[-121.46787,49.05106,1580.31],[-121.46788,49.05109,1580.66],[-121.46791,49.05105,1577.35],[-121.46796,49.05106,1574.42],[-121.46797,49.0511,1575.16],[-121.46798,49.05113,1575.34],[-121.468,49.05116,1574.76],[-121.46801,49.05118,1574.61],[-121.46802,49.05122,1574.95],[-121.46803,49.05126,1575.31],[-121.46804,49.0513,1575.69],[-121.46805,49.05134,1576.1],[-121.46806,49.05137,1576.33],[-121.46808,49.05141,1576.57],[-121.4681,49.05145,1576.95],[-121.46812,49.05148,1577.07],[-121.46819,49.05149,1574.63],[-121.46824,49.0515,1573.03],[-121.46828,49.05153,1572.6],[-121.46831,49.05155,1572.24],[-121.46834,49.05158,1572.44],[-121.46836,49.05161,1573.22],[-121.46838,49.05164,1573.97],[-121.46839,49.05167,1574.88],[-121.4684,49.0517,1575.58],[-121.46843,49.05173,1575.81],[-121.46846,49.05176,1575.98],[-121.46849,49.05179,1576.11],[-121.46852,49.05182,1576.19],[-121.46857,49.0518,1574.39],[-121.46859,49.05184,1574.92],[-121.46859,49.05187,1575.69],[-121.4686,49.05191,1576.44],[-121.46861,49.05194,1576.92],[-121.46863,49.05197,1577.01],[-121.46865,49.05199,1576.86],[-121.46868,49.05202,1576.65],[-121.46871,49.05204,1576.22],[-121.46874,49.05201,1574.7],[-121.46875,49.05198,1573.77],[-121.46876,49.05196,1573.05],[-121.46879,49.05194,1571.76],[-121.46883,49.05193,1570.41],[-121.46886,49.05193,1569.56],[-121.46888,49.05194,1569.17],[-121.46893,49.05195,1568.22],[-121.46896,49.05193,1567.18],[-121.46898,49.05197,1567.49],[-121.46898,49.052,1568.04],[-121.469,49.05204,1568.25],[-121.469,49.05207,1568.77],[-121.46903,49.0521,1568.46],[-121.4691,49.05211,1566.66],[-121.46915,49.05212,1565.37],[-121.46921,49.05212,1563.61],[-121.4692,49.05209,1563.61],[-121.4692,49.05205,1563.21],[-121.4692,49.05202,1562.91],[-121.46919,49.05197,1562.67],[-121.4692,49.05194,1562.05],[-121.46922,49.05195,1561.71],[-121.46926,49.05194,1560.54],[-121.46929,49.05191,1559.02],[-121.46932,49.05189,1557.76],[-121.46935,49.05186,1556.25],[-121.46939,49.05184,1554.74],[-121.46942,49.05181,1553.23],[-121.46945,49.05178,1551.7],[-121.46948,49.05176,1550.37],[-121.46951,49.05173,1548.84],[-121.46953,49.05171,1547.84],[-121.46956,49.05168,1546.38],[-121.4696,49.05166,1544.4],[-121.46964,49.05169,1544.54],[-121.46967,49.05171,1544.15],[-121.46971,49.05172,1543.28],[-121.46975,49.0517,1541.42],[-121.46981,49.0517,1538.88],[-121.46987,49.0517,1536.34],[-121.46992,49.0517,1534.23],[-121.46997,49.0517,1532.11],[-121.47001,49.05171,1530.7],[-121.47005,49.05169,1528.61],[-121.4701,49.05168,1526.38],[-121.47015,49.05167,1524.14],[-121.4702,49.05166,1521.65],[-121.47025,49.05166,1519.71],[-121.4703,49.05165,1517.34],[-121.47036,49.05163,1514.37],[-121.47041,49.05162,1512.36],[-121.47047,49.05161,1510.15],[-121.47052,49.05159,1508.07],[-121.47057,49.05158,1506.62],[-121.47053,49.05156,1506.95],[-121.47055,49.05153,1505.68],[-121.47057,49.05151,1504.91]]}}]}
