{"type":"FeatureCollection","features":[{"type":"Feature","properties":{"name":"Radium Lake","source":"AllTrails","startTime":"2026-08-01T16:40:14Z","endTime":"2026-08-01T21:33:38Z"},"geometry":{"type":"LineString","coordinates":[[-121.454,49.09083,653.16],[-121.45405,49.09085,653.17],[-121.45409,49.09087,653.31],[-121.45412,49.0909,653.74],[-121.45415,49.09093,654.19],[-121.45418,49.09095,654.38],[-121.45423,49.09095,653.87],[-121.45429,49.09094,653.08],[-121.45434,49.09094,652.58],[-121.4544,49.09095,652.13],[-121.45445,49.09097,651.93],[-121.45449,49.09098,651.78],[-121.45454,49.091,651.71],[-121.4546,49.09101,651.42],[-121.45465,49.09101,651.06],[-121.45471,49.09101,650.63],[-121.45474,49.09097,649.62],[-121.45477,49.09092,648.33],[-121.45479,49.09088,647.41],[-121.45482,49.09085,646.46],[-121.45485,49.09082,645.88],[-121.45489,49.09079,645.7],[-121.45494,49.09077,645.38],[-121.455,49.09077,644.6],[-121.45505,49.09078,644.53],[-121.45509,49.09082,643.91],[-121.45514,49.09084,644.07],[-121.45519,49.09086,644.59],[-121.45524,49.09086,644.93],[-121.4553,49.09085,645.21],[-121.45534,49.09083,645.25],[-121.45538,49.09081,645.54],[-121.45542,49.09078,645.9],[-121.45547,49.09075,646.29],[-121.4555,49.09072,646.62],[-121.45554,49.09069,646.98],[-121.45558,49.09066,647.7],[-121.45562,49.09063,648.78],[-121.45566,49.09059,650.15],[-121.45569,49.09055,651.39],[-121.45571,49.0905,651.82],[-121.45574,49.09046,652.31],[-121.45576,49.09043,652.51],[-121.4558,49.09039,652.8],[-121.45584,49.09036,652.9],[-121.45588,49.09033,652.63],[-121.45591,49.0903,652.28],[-121.45595,49.09027,652.26],[-121.45598,49.09024,653.22],[-121.45602,49.0902,654.42],[-121.45606,49.09018,654.95],[-121.45609,49.09015,655.75],[-121.45612,49.09012,656.5],[-121.45615,49.09008,657.44],[-121.45611,49.09005,658.57],[-121.45607,49.09002,659.7],[-121.45605,49.08999,660.33],[-121.45604,49.08995,659.97],[-121.45605,49.08991,659.47],[-121.45606,49.08987,658.96],[-121.45606,49.08983,658.53],[-121.45607,49.08979,658.03],[-121.45607,49.08974,657.49],[-121.45607,49.0897,657.17],[-121.45607,49.08966,656.94],[-121.45607,49.08962,656.71],[-121.45606,49.08958,656.48],[-121.45606,49.08953,656.17],[-121.45606,49.08948,655.85],[-121.45606,49.08944,655.6],[-121.45607,49.08939,655.28],[-121.45607,49.08935,654.97],[-121.45608,49.08932,654.83],[-121.45609,49.08929,654.69],[-121.45613,49.08925,654.67],[-121.45616,49.08922,654.56],[-121.45616,49.08919,654.34],[-121.45616,49.08914,653.85],[-121.45616,49.0891,653.37],[-121.45616,49.08907,653.01],[-121.45616,49.08903,652.53],[-121.45616,49.08899,652.04],[-121.45615,49.08896,651.7],[-121.45614,49.08893,651.37],[-121.45614,49.08891,651.14],[-121.45614,49.08887,651.09],[-121.45614,49.08883,651.51],[-121.45614,49.0888,651.82],[-121.45614,49.08876,652.24],[-121.45614,49.08872,652.66],[-121.45614,49.08868,653.07],[-121.45614,49.08863,653.6],[-121.45614,49.0886,653.96],[-121.45614,49.08857,654.4],[-121.45615,49.08853,654.93],[-121.45615,49.08848,655.67],[-121.45616,49.08845,656.07],[-121.45616,49.08841,656.67],[-121.45617,49.08836,657.38],[-121.45617,49.08832,657.85],[-121.45617,49.08828,658.02],[-121.45618,49.08825,658.13],[-121.45618,49.08821,658.31],[-121.45618,49.08818,658.44],[-121.45619,49.08814,658.61],[-121.45619,49.0881,658.79],[-121.45622,49.08812,658.68],[-121.45623,49.08809,658.82],[-121.45623,49.08806,658.98],[-121.45623,49.08803,658.96],[-121.45622,49.08798,658.89],[-121.4562,49.08794,658.87],[-121.45619,49.0879,658.84],[-121.45619,49.08786,658.8],[-121.45618,49.08782,658.79],[-121.45619,49.08777,658.76],[-121.45619,49.08773,658.96],[-121.45619,49.08769,659.17],[-121.45619,49.08765,659.37],[-121.45619,49.08761,659.58],[-121.45619,49.08757,659.79],[-121.45619,49.08753,659.99],[-121.45619,49.0875,660.15],[-121.45618,49.08746,659.82],[-121.45618,49.08742,659.39],[-121.45617,49.08738,659.07],[-121.45616,49.08734,658.74],[-121.45616,49.0873,658.31],[-121.45615,49.08726,657.99],[-121.45615,49.08722,657.55],[-121.45615,49.08718,657.04],[-121.45615,49.08714,656.52],[-121.45615,49.0871,656.0],[-121.45615,49.08706,655.49],[-121.45615,49.08702,654.97],[-121.45615,49.08698,654.46],[-121.45615,49.08694,654.0],[-121.45615,49.0869,653.98],[-121.45615,49.08686,653.96],[-121.45616,49.08682,653.92],[-121.45616,49.08678,653.9],[-121.45616,49.08674,653.87],[-121.45615,49.0867,653.88],[-121.45615,49.08666,653.9],[-121.45616,49.08662,654.13],[-121.45615,49.08658,654.44],[-121.45615,49.08654,654.71],[-121.45615,49.0865,654.98],[-121.45615,49.08646,655.24],[-121.45615,49.08644,655.38],[-121.45614,49.0864,655.72],[-121.45614,49.08636,655.62],[-121.45614,49.08632,655.37],[-121.45614,49.08628,655.13],[-121.45614,49.08625,654.95],[-121.45616,49.08621,654.7],[-121.4562,49.08618,654.58],[-121.45623,49.08615,654.53],[-121.45626,49.08616,654.6],[-121.45626,49.08613,654.56],[-121.45626,49.08608,654.36],[-121.45626,49.08604,654.14],[-121.45626,49.086,653.92],[-121.45626,49.08596,653.7],[-121.45626,49.08592,653.48],[-121.45626,49.08588,653.26],[-121.45626,49.08584,653.04],[-121.45627,49.0858,650.77],[-121.45627,49.08576,648.1],[-121.45628,49.08573,646.55],[-121.4563,49.08569,645.32],[-121.45633,49.08565,645.6],[-121.45636,49.08562,647.21],[-121.4564,49.08559,649.45],[-121.45642,49.08556,648.95],[-121.45643,49.08558,649.18],[-121.45644,49.08559,649.27],[-121.45649,49.08557,648.81],[-121.45652,49.08555,647.86],[-121.45658,49.08552,644.05],[-121.45666,49.08548,639.04],[-121.4567,49.08546,637.85],[-121.45675,49.08543,637.12],[-121.4568,49.0854,637.64],[-121.45684,49.08538,639.14],[-121.45689,49.08537,642.34],[-121.45694,49.08535,645.9],[-121.45699,49.08532,646.48],[-121.45704,49.0853,646.77],[-121.45709,49.08529,647.09],[-121.45713,49.08527,647.05],[-121.45719,49.08525,647.41],[-121.45724,49.08523,648.28],[-121.45729,49.08522,649.08],[-121.45734,49.0852,649.93],[-121.45739,49.08518,650.84],[-121.45745,49.08516,651.98],[-121.4575,49.08514,652.99],[-121.45755,49.08513,653.06],[-121.4576,49.08511,653.21],[-121.45765,49.08509,653.35],[-121.4577,49.08508,653.42],[-121.45775,49.08506,653.57],[-121.4578,49.08505,653.73],[-121.45785,49.08503,654.07],[-121.4579,49.08502,654.33],[-121.45794,49.085,654.58],[-121.45798,49.08498,654.68],[-121.45803,49.08497,654.81],[-121.45807,49.08495,654.9],[-121.45808,49.08491,654.77],[-121.45812,49.08489,654.79],[-121.45815,49.08485,654.59],[-121.45817,49.08481,654.29],[-121.45819,49.08478,654.03],[-121.45821,49.08475,653.71],[-121.45824,49.08471,653.12],[-121.45827,49.08468,652.52],[-121.45829,49.08465,651.99],[-121.45832,49.08462,651.52],[-121.45833,49.08458,650.95],[-121.45834,49.08455,650.52],[-121.45833,49.08451,649.93],[-121.45831,49.08447,649.22],[-121.45829,49.08443,648.06],[-121.45828,49.08439,646.23],[-121.45828,49.08435,644.47],[-121.45827,49.08431,642.63],[-121.45827,49.08428,641.31],[-121.45826,49.08424,639.45],[-121.45826,49.0842,637.68],[-121.45823,49.08418,636.48],[-121.45819,49.08415,635.33],[-121.45814,49.08412,634.64],[-121.45806,49.0841,633.8],[-121.45799,49.08409,633.25],[-121.45803,49.0841,633.58],[-121.45807,49.08411,633.93],[-121.45812,49.08411,634.4],[-121.45817,49.08411,634.86],[-121.45821,49.08411,635.24],[-121.45826,49.0841,635.61],[-121.4583,49.08407,635.68],[-121.45833,49.08403,635.5],[-121.45835,49.08399,635.15],[-121.45837,49.08394,634.68],[-121.45838,49.08391,634.4],[-121.4584,49.08388,634.36],[-121.4584,49.08385,634.76],[-121.45835,49.08385,634.51],[-121.45841,49.08383,635.09],[-121.45844,49.08381,635.56],[-121.45846,49.08377,636.33],[-121.45849,49.08373,637.25],[-121.45851,49.0837,637.97],[-121.45854,49.08367,638.87],[-121.45856,49.08364,639.7],[-121.45857,49.08359,641.32],[-121.45857,49.08356,642.61],[-121.45854,49.08353,643.25],[-121.45849,49.08352,642.52],[-121.45844,49.08351,641.7],[-121.45839,49.0835,640.79],[-121.45834,49.08349,639.79],[-121.45829,49.08349,639.03],[-121.45824,49.08349,638.36],[-121.45819,49.0835,637.54],[-121.45814,49.08349,637.01],[-121.45807,49.08348,636.15],[-121.45802,49.08346,635.9],[-121.45797,49.08345,635.72],[-121.458,49.08343,636.03],[-121.45805,49.08341,636.42],[-121.4581,49.08341,637.23],[-121.45816,49.08341,638.29],[-121.45823,49.08341,639.52],[-121.45828,49.08341,640.4],[-121.45833,49.08342,641.07],[-121.45838,49.08343,642.35],[-121.45842,49.08346,642.7],[-121.45844,49.08348,642.64],[-121.45848,49.0835,642.99],[-121.45849,49.08348,643.95],[-121.45854,49.08348,645.27],[-121.45857,49.0835,645.19],[-121.45861,49.08349,646.64],[-121.45865,49.08347,648.87],[-121.45864,49.08345,649.49],[-121.45859,49.08342,649.27],[-121.45855,49.08341,648.42],[-121.45851,49.0834,647.49],[-121.45846,49.08339,646.14],[-121.45841,49.08338,644.7],[-121.45836,49.08336,643.42],[-121.45831,49.08334,642.36],[-121.45835,49.08332,644.44],[-121.4584,49.08331,647.04],[-121.45845,49.08331,649.07],[-121.45849,49.08329,651.96],[-121.45853,49.08328,654.27],[-121.45858,49.08327,657.02],[-121.45863,49.08329,657.65],[-121.45866,49.08327,660.13],[-121.45869,49.08325,662.63],[-121.45873,49.08323,665.51],[-121.45878,49.08323,667.37],[-121.45881,49.08326,666.37],[-121.45885,49.08329,665.7],[-121.45888,49.08332,664.64],[-121.45893,49.08334,665.41],[-121.45897,49.08336,665.98],[-121.45901,49.08339,665.91],[-121.45904,49.08342,665.34],[-121.45908,49.08345,665.09],[-121.45911,49.08348,664.37],[-121.45915,49.0835,664.59],[-121.45919,49.08352,664.72],[-121.45923,49.08355,664.19],[-121.45927,49.08357,664.33],[-121.45931,49.0836,663.86],[-121.45935,49.08363,663.36],[-121.45939,49.08366,662.69],[-121.45944,49.08369,662.18],[-121.45948,49.08371,661.9],[-121.45953,49.08373,661.82],[-121.45957,49.08375,661.39],[-121.45962,49.08372,665.1],[-121.45967,49.0837,668.13],[-121.45972,49.08371,668.75],[-121.45973,49.08374,666.5],[-121.45972,49.08378,662.96],[-121.45972,49.08381,660.48],[-121.45975,49.08383,659.42],[-121.45978,49.08385,658.32],[-121.45982,49.08387,657.37],[-121.45987,49.08389,656.62],[-121.45991,49.08392,656.11],[-121.45995,49.08395,655.54],[-121.46,49.08397,655.5],[-121.46004,49.084,655.01],[-121.46008,49.08402,654.82],[-121.46012,49.08404,654.52],[-121.46017,49.08407,653.68],[-121.46021,49.08409,653.08],[-121.46026,49.08412,651.83],[-121.46031,49.08414,651.48],[-121.46036,49.08416,651.24],[-121.46041,49.08417,651.74],[-121.46046,49.08419,652.02],[-121.46052,49.08421,652.32],[-121.46056,49.08424,651.62],[-121.46059,49.08427,650.57],[-121.46061,49.08431,648.87],[-121.46064,49.08434,647.72],[-121.46067,49.08433,648.52],[-121.46073,49.08435,648.1],[-121.46077,49.08438,646.92],[-121.4608,49.08442,645.06],[-121.46083,49.08446,643.53],[-121.46086,49.08448,643.19],[-121.46091,49.0845,643.06],[-121.46096,49.08452,642.98],[-121.46101,49.08455,642.72],[-121.46104,49.08457,642.54],[-121.46108,49.08459,642.51],[-121.46112,49.08461,642.54],[-121.46117,49.08463,642.7],[-121.46121,49.08464,642.91],[-121.46127,49.08465,643.3],[-121.46132,49.08467,643.2],[-121.46137,49.08468,643.34],[-121.46142,49.08469,643.34],[-121.46147,49.0847,643.21],[-121.46153,49.08472,642.61],[-121.46158,49.08473,642.57],[-121.46162,49.08474,642.57],[-121.46168,49.08476,642.59],[-121.46174,49.08477,643.01],[-121.4618,49.08479,643.23],[-121.46185,49.0848,643.49],[-121.46191,49.08482,643.6],[-121.46195,49.08483,643.7],[-121.46201,49.08485,643.6],[-121.46207,49.08487,643.47],[-121.46211,49.08488,643.45],[-121.46216,49.0849,643.22],[-121.4622,49.08491,643.16],[-121.46225,49.08493,642.91],[-121.4623,49.08494,642.91],[-121.46234,49.08495,642.84],[-121.46239,49.08497,642.49],[-121.46243,49.08498,642.36],[-121.46248,49.085,641.93],[-121.46252,49.08501,641.88],[-121.46257,49.08503,641.65],[-121.46262,49.08504,641.69],[-121.46267,49.08505,641.67],[-121.46272,49.08507,641.11],[-121.46276,49.08508,640.87],[-121.46281,49.08507,641.73],[-121.46286,49.08505,643.21],[-121.46291,49.08504,644.21],[-121.46295,49.08505,644.01],[-121.463,49.08508,642.68],[-121.46305,49.08509,642.45],[-121.46312,49.0851,642.54],[-121.46318,49.0851,643.15],[-121.46323,49.08511,642.92],[-121.46328,49.08511,643.39],[-121.46334,49.08512,643.14],[-121.4634,49.08512,643.82],[-121.46345,49.08512,644.38],[-121.46349,49.08512,644.83],[-121.46354,49.08511,646.28],[-121.46359,49.08511,646.86],[-121.46365,49.08512,646.8],[-121.4637,49.08516,644.11],[-121.46373,49.08519,642.06],[-121.46378,49.08522,640.47],[-121.46383,49.08524,639.81],[-121.46387,49.08525,639.81],[-121.46394,49.08526,639.38],[-121.46398,49.08526,639.37],[-121.46403,49.08525,640.1],[-121.4641,49.08525,640.05],[-121.46414,49.08525,640.02],[-121.46419,49.08526,639.43],[-121.46425,49.08526,639.8],[-121.4643,49.08527,639.47],[-121.46434,49.0853,638.24],[-121.46439,49.08533,637.2],[-121.46444,49.08535,636.59],[-121.46448,49.08537,635.6],[-121.46449,49.08539,634.65],[-121.46452,49.08542,633.21],[-121.46458,49.08544,632.2],[-121.46463,49.08545,631.69],[-121.46469,49.08545,631.6],[-121.46476,49.08544,631.96],[-121.46482,49.08544,631.9],[-121.46487,49.08544,631.86],[-121.46492,49.08543,632.17],[-121.46498,49.08543,632.09],[-121.46503,49.08544,631.77],[-121.46509,49.08544,631.82],[-121.46514,49.08546,631.11],[-121.46519,49.08547,630.72],[-121.46518,49.08549,629.93],[-121.46521,49.0855,629.5],[-121.46526,49.08552,628.58],[-121.46532,49.08553,628.05],[-121.46538,49.08554,627.59],[-121.46543,49.08554,627.55],[-121.46548,49.08555,627.18],[-121.46553,49.08556,626.89],[-121.46559,49.08557,626.52],[-121.46564,49.08558,626.11],[-121.46569,49.08561,625.24],[-121.46571,49.08564,624.49],[-121.46573,49.08567,623.75],[-121.46577,49.0857,622.99],[-121.46581,49.08572,622.48],[-121.46586,49.08573,622.2],[-121.46591,49.08572,622.34],[-121.46591,49.08569,622.95],[-121.46585,49.08568,623.28],[-121.46581,49.08566,623.8],[-121.46584,49.08565,623.94],[-121.46585,49.08563,624.35],[-121.46589,49.08566,623.62],[-121.46592,49.08569,622.94],[-121.46595,49.08572,622.28],[-121.46597,49.08575,621.65],[-121.466,49.08579,620.84],[-121.46605,49.08581,620.44],[-121.46611,49.0858,620.6],[-121.46617,49.0858,620.74],[-121.46623,49.08582,620.61],[-121.46628,49.08583,620.65],[-121.46633,49.08585,620.5],[-121.46638,49.08586,620.49],[-121.46643,49.08587,619.99],[-121.46648,49.08588,619.34],[-121.46654,49.08589,618.56],[-121.46659,49.0859,617.83],[-121.46665,49.08591,616.96],[-121.46668,49.08593,616.2],[-121.46672,49.08596,615.26],[-121.46676,49.08598,614.6],[-121.4668,49.08601,613.61],[-121.46684,49.08603,612.89],[-121.46689,49.08603,612.77],[-121.46693,49.08601,613.31],[-121.46697,49.08599,613.79],[-121.46702,49.08598,613.85],[-121.46707,49.08599,613.27],[-121.46713,49.08598,613.26],[-121.46719,49.08597,613.24],[-121.46723,49.08598,612.79],[-121.46719,49.08597,613.24],[-121.46718,49.08594,614.17],[-121.4672,49.08591,614.93],[-121.4672,49.08594,614.06],[-121.4672,49.08598,612.89],[-121.46725,49.08599,612.52],[-121.4673,49.08599,612.57],[-121.46731,49.08603,611.3],[-121.46736,49.08601,611.96],[-121.46733,49.08599,612.61],[-121.46736,49.08597,613.32],[-121.46742,49.08595,614.17],[-121.46749,49.08595,614.35],[-121.46753,49.08594,614.75],[-121.46759,49.08593,615.07],[-121.46765,49.08592,615.36],[-121.46769,49.08592,615.31],[-121.46774,49.08591,615.58],[-121.46779,49.08591,615.44],[-121.46784,49.0859,615.45],[-121.46788,49.08589,615.5],[-121.46792,49.08585,616.47],[-121.46795,49.08581,617.4],[-121.468,49.08578,617.9],[-121.46804,49.08576,618.21],[-121.46807,49.08573,618.69],[-121.46811,49.08571,618.53],[-121.46814,49.08568,618.96],[-121.46818,49.08565,619.33],[-121.46825,49.08566,617.84],[-121.4683,49.08567,616.61],[-121.46834,49.08569,615.17],[-121.4684,49.08571,614.03],[-121.46845,49.08572,613.32],[-121.46851,49.08573,612.5],[-121.46857,49.08574,611.62],[-121.46862,49.08576,610.2],[-121.46865,49.08577,609.53],[-121.46868,49.08575,610.68],[-121.46873,49.08577,609.28],[-121.46876,49.0858,607.17],[-121.46878,49.08582,605.7],[-121.46883,49.08584,604.37],[-121.46887,49.08585,604.01],[-121.46891,49.08587,603.99],[-121.46887,49.08587,603.86],[-121.46882,49.08586,604.28],[-121.46886,49.08585,604.08],[-121.46891,49.08584,604.25],[-121.46895,49.08584,604.81],[-121.46898,49.08587,604.83],[-121.46901,49.0859,604.74],[-121.46905,49.08593,604.61],[-121.46907,49.08596,604.21],[-121.4691,49.086,603.56],[-121.46913,49.08602,603.21],[-121.46917,49.08605,602.56],[-121.46921,49.08608,601.97],[-121.46925,49.0861,601.6],[-121.4693,49.08612,601.44],[-121.46933,49.08615,601.32],[-121.46937,49.08618,601.07],[-121.46941,49.08621,600.67],[-121.46944,49.08623,600.31],[-121.46949,49.08622,601.03],[-121.46952,49.0862,601.83],[-121.46958,49.0862,602.71],[-121.46962,49.0862,603.3],[-121.46967,49.08621,603.71],[-121.46972,49.08623,603.69],[-121.46976,49.08626,603.43],[-121.46981,49.08627,604.04],[-121.46986,49.08627,605.04],[-121.46991,49.08627,606.04],[-121.46996,49.08629,605.96],[-121.47001,49.08631,605.83],[-121.47005,49.08632,606.36],[-121.4701,49.08633,607.14],[-121.47014,49.08635,606.98],[-121.47019,49.08637,607.02],[-121.47023,49.08639,606.75],[-121.47028,49.08642,606.72],[-121.47033,49.08644,607.28],[-121.47038,49.08647,607.16],[-121.47044,49.08651,606.5],[-121.4705,49.08655,605.46],[-121.47054,49.08656,605.61],[-121.47058,49.08658,605.17],[-121.4706,49.08661,603.6],[-121.47062,49.08665,601.3],[-121.47064,49.08668,600.35],[-121.47067,49.0867,600.57],[-121.47073,49.08672,601.15],[-121.47078,49.08674,601.45],[-121.47083,49.08676,601.61],[-121.47087,49.08679,601.63],[-121.4709,49.08681,601.7],[-121.47094,49.08683,601.96],[-121.47099,49.08686,602.12],[-121.47104,49.08689,602.24],[-121.47108,49.08692,602.13],[-121.47112,49.08695,602.08],[-121.47116,49.08697,602.46],[-121.47119,49.087,602.45],[-121.47123,49.08702,602.7],[-121.47127,49.08705,602.69],[-121.47132,49.08707,602.93],[-121.47136,49.08708,603.22],[-121.47142,49.08708,604.26],[-121.47147,49.0871,604.76],[-121.47151,49.08713,604.65],[-121.47155,49.08716,604.41],[-121.47159,49.08718,604.4],[-121.47163,49.0872,604.31],[-121.47166,49.08723,603.74],[-121.4717,49.08725,603.84],[-121.47174,49.08727,603.89],[-121.47178,49.08729,603.87],[-121.47183,49.08731,603.9],[-121.47188,49.08733,603.85],[-121.47192,49.08735,603.63],[-121.47197,49.08737,603.48],[-121.47202,49.08739,603.27],[-121.47204,49.08736,604.57],[-121.47208,49.08738,604.22],[-121.47211,49.08739,604.1],[-121.47214,49.08742,603.11],[-121.47215,49.08748,600.6],[-121.47216,49.08751,599.77],[-121.47219,49.08754,599.87],[-121.47221,49.08757,599.94],[-121.47223,49.08761,600.1],[-121.47224,49.08765,600.22],[-121.47225,49.08769,600.33],[-121.47226,49.08772,600.44],[-121.47227,49.08776,600.53],[-121.47228,49.0878,601.1],[-121.47229,49.08783,601.86],[-121.47229,49.08787,602.72],[-121.47226,49.0879,603.05],[-121.47225,49.08793,603.59],[-121.47227,49.08796,604.45],[-121.4723,49.088,605.64],[-121.47233,49.08803,606.61],[-121.47236,49.08806,607.49],[-121.4724,49.08809,607.92],[-121.47243,49.08813,608.24],[-121.47246,49.08816,608.57],[-121.47249,49.08819,608.89],[-121.47253,49.08822,609.63],[-121.47256,49.08826,610.19],[-121.4726,49.08829,610.91],[-121.47263,49.08832,611.38],[-121.47267,49.08835,611.65],[-121.4727,49.08837,611.65],[-121.47275,49.0884,611.65],[-121.4728,49.08841,612.13],[-121.47285,49.08841,612.9],[-121.4729,49.08842,613.4],[-121.47296,49.08843,614.07],[-121.47301,49.08845,614.34],[-121.47305,49.08847,614.47],[-121.4731,49.08848,614.62],[-121.47315,49.08851,614.14],[-121.47319,49.08853,613.81],[-121.47323,49.08856,613.15],[-121.47328,49.08859,612.46],[-121.47333,49.08861,612.02],[-121.47338,49.08863,611.98],[-121.47343,49.08865,612.02],[-121.47347,49.08867,611.99],[-121.47351,49.0887,611.76],[-121.47355,49.08872,611.82],[-121.47359,49.08875,611.7],[-121.47363,49.08877,611.67],[-121.47366,49.0888,611.22],[-121.4737,49.08882,611.05],[-121.47374,49.08884,610.9],[-121.47378,49.08886,610.78],[-121.47382,49.08888,610.67],[-121.47386,49.0889,610.61],[-121.47391,49.08893,610.79],[-121.47395,49.08895,611.22],[-121.47399,49.08897,611.65],[-121.47402,49.089,611.76],[-121.47406,49.08902,612.19],[-121.47408,49.08906,611.98],[-121.47408,49.08909,611.54],[-121.4741,49.08913,611.33],[-121.47413,49.08917,611.23],[-121.47416,49.08921,610.46],[-121.47419,49.08924,609.88],[-121.47424,49.08927,609.44],[-121.47427,49.08929,609.12],[-121.47431,49.08931,608.9],[-121.47435,49.08934,608.36],[-121.47438,49.08937,607.72],[-121.47442,49.0894,607.18],[-121.47447,49.08941,607.2],[-121.47451,49.08943,606.69],[-121.47455,49.08945,606.1],[-121.47459,49.08947,605.24],[-121.47463,49.08949,604.43],[-121.47467,49.08951,603.66],[-121.47471,49.08953,602.92],[-121.47476,49.08954,602.49],[-121.47482,49.08955,601.98],[-121.47487,49.08956,601.5],[-121.47493,49.08957,601.05],[-121.47499,49.08958,600.63],[-121.47505,49.0896,599.52],[-121.47512,49.0896,599.08],[-121.47518,49.08959,599.0],[-121.47524,49.08958,598.86],[-121.47529,49.08959,598.27],[-121.47536,49.0896,597.69],[-121.47541,49.0896,597.45],[-121.47547,49.08961,596.99],[-121.47553,49.08962,596.57],[-121.47559,49.08962,596.02],[-121.47566,49.08963,594.95],[-121.47571,49.08964,594.12],[-121.47576,49.08965,593.29],[-121.47582,49.08967,592.12],[-121.47588,49.08968,591.73],[-121.47593,49.08969,591.54],[-121.47598,49.08969,591.52],[-121.47605,49.0897,591.34],[-121.47611,49.0897,591.32],[-121.47618,49.0897,591.09],[-121.47625,49.0897,590.86],[-121.47631,49.0897,590.66],[-121.47637,49.0897,590.46],[-121.47643,49.08971,589.8],[-121.47648,49.08971,589.29],[-121.47653,49.08972,588.53],[-121.47659,49.08972,587.89],[-121.47663,49.08973,587.26],[-121.4766,49.08973,587.58],[-121.47658,49.08972,588.0],[-121.47661,49.08969,588.56],[-121.4766,49.08966,589.52],[-121.47658,49.08962,590.79],[-121.47657,49.08957,592.21],[-121.47657,49.08954,593.03],[-121.47656,49.0895,594.12],[-121.47653,49.08946,595.11],[-121.47647,49.08944,595.43],[-121.47639,49.08944,595.12],[-121.47634,49.08944,595.1],[-121.47628,49.08943,595.26],[-121.47626,49.0894,595.75],[-121.47622,49.08939,595.78],[-121.47617,49.08938,595.71],[-121.47613,49.08936,595.71],[-121.4761,49.08933,595.83],[-121.47606,49.08931,595.97],[-121.47603,49.08929,596.08],[-121.47598,49.08926,596.17],[-121.47594,49.08924,596.18],[-121.4759,49.08921,596.17],[-121.47586,49.08919,596.08],[-121.47581,49.08917,596.17],[-121.47577,49.08915,596.74],[-121.47572,49.08913,597.42],[-121.47567,49.08911,598.08],[-121.47562,49.08909,598.7],[-121.47558,49.08908,599.1],[-121.47553,49.08906,599.9],[-121.47548,49.08904,600.91],[-121.47544,49.08901,601.92],[-121.47539,49.08899,602.93],[-121.47535,49.08897,603.79],[-121.47532,49.08894,604.66],[-121.47529,49.0889,605.66],[-121.47526,49.08886,607.49],[-121.47524,49.08883,609.05],[-121.47524,49.0888,609.97],[-121.47523,49.08877,611.18],[-121.47521,49.08874,612.63],[-121.47518,49.08871,614.28],[-121.47514,49.08868,616.11],[-121.47511,49.08865,617.62],[-121.47509,49.08862,618.83],[-121.47506,49.0886,619.83],[-121.47504,49.08857,620.54],[-121.47501,49.08854,621.34],[-121.47499,49.08852,621.76],[-121.47497,49.08849,622.2],[-121.47495,49.08846,622.63],[-121.47495,49.08842,622.92],[-121.47496,49.08839,623.02],[-121.47495,49.08836,623.35],[-121.47494,49.08832,623.93],[-121.47492,49.08829,624.73],[-121.47491,49.08826,625.39],[-121.4749,49.08822,626.2],[-121.4749,49.08819,626.76],[-121.47489,49.08815,627.5],[-121.47488,49.08812,628.01],[-121.47488,49.08809,628.54],[-121.47487,49.08805,629.26],[-121.47486,49.08801,630.63],[-121.47486,49.08798,631.71],[-121.47485,49.08795,632.72],[-121.47486,49.08791,634.23],[-121.47486,49.08788,635.31],[-121.47487,49.08784,636.82],[-121.47488,49.0878,638.34],[-121.47492,49.08778,639.34],[-121.47499,49.08776,640.31],[-121.47503,49.08773,641.7],[-121.47504,49.0877,642.58],[-121.47504,49.08766,643.47],[-121.47505,49.0877,642.81],[-121.47504,49.08768,643.03],[-121.47504,49.08766,643.47],[-121.47505,49.08762,644.59],[-121.47508,49.0876,645.75],[-121.47514,49.08759,647.42],[-121.47519,49.0876,648.38],[-121.47525,49.08761,649.57],[-121.47529,49.08763,649.94],[-121.47535,49.08764,650.77],[-121.47535,49.08764,650.77],[-121.47539,49.08765,651.27],[-121.47539,49.08768,650.6],[-121.47533,49.08773,648.27],[-121.47531,49.08776,647.13],[-121.47532,49.08779,646.39],[-121.47536,49.08783,645.58],[-121.47538,49.08786,644.76],[-121.47539,49.0879,643.32],[-121.47539,49.08793,642.07],[-121.4754,49.08796,641.06],[-121.47542,49.088,639.88],[-121.47543,49.08804,638.48],[-121.47546,49.08807,637.76],[-121.47548,49.08811,635.89],[-121.47553,49.08812,636.31],[-121.47556,49.08814,635.62],[-121.4756,49.08817,634.48],[-121.47563,49.0882,633.11],[-121.47566,49.08824,631.05],[-121.47568,49.08826,630.11],[-121.47569,49.0883,627.64],[-121.47568,49.08834,624.88],[-121.47567,49.08837,623.13],[-121.47567,49.08841,621.02],[-121.47568,49.08844,619.56],[-121.47571,49.08848,617.74],[-121.47576,49.0885,617.11],[-121.47583,49.08851,617.16],[-121.47588,49.08852,618.25],[-121.47593,49.08854,618.75],[-121.47598,49.08856,619.17],[-121.47603,49.08857,620.2],[-121.47607,49.08859,620.15],[-121.4761,49.08862,619.2],[-121.47614,49.08865,619.56],[-121.47618,49.08867,620.59],[-121.47622,49.08868,622.12],[-121.47627,49.08869,624.12],[-121.47633,49.0887,626.58],[-121.47638,49.08871,628.5],[-121.47643,49.08869,632.03],[-121.47648,49.08868,634.88],[-121.4765,49.08865,637.53],[-121.47649,49.08862,638.85],[-121.47649,49.08859,641.1],[-121.47647,49.08856,642.66],[-121.47643,49.08854,642.48],[-121.4764,49.08851,643.52],[-121.47637,49.08849,643.51],[-121.47635,49.08846,644.72],[-121.47632,49.08843,645.3],[-121.47631,49.0884,647.03],[-121.4763,49.08837,648.74],[-121.47629,49.08835,649.67],[-121.47627,49.08833,649.93],[-121.47625,49.0883,650.66],[-121.47621,49.08826,651.18],[-121.47619,49.08823,652.33],[-121.47617,49.08819,654.38],[-121.47616,49.08814,657.78],[-121.47615,49.08809,661.3],[-121.47614,49.08806,663.38],[-121.47612,49.08803,663.69],[-121.4761,49.088,663.41],[-121.47607,49.08797,662.45],[-121.47605,49.08793,662.34],[-121.47603,49.0879,662.11],[-121.47602,49.08786,662.66],[-121.476,49.08783,662.61],[-121.47599,49.08779,663.3],[-121.47598,49.08775,663.63],[-121.47598,49.08772,664.0],[-121.47597,49.08768,664.15],[-121.47596,49.08764,664.32],[-121.47595,49.08762,664.23],[-121.47595,49.08759,664.62],[-121.47593,49.08755,664.47],[-121.47592,49.08752,664.54],[-121.47589,49.08754,663.29],[-121.47587,49.08757,662.21],[-121.4759,49.08759,662.94],[-121.47595,49.08758,664.75],[-121.47595,49.08753,665.39],[-121.47596,49.08749,666.1],[-121.47597,49.08745,666.42],[-121.47598,49.08741,666.79],[-121.47598,49.08738,666.8],[-121.47598,49.08735,666.81],[-121.47598,49.08731,666.83],[-121.47597,49.08728,666.4],[-121.47596,49.08724,665.94],[-121.47592,49.08722,664.07],[-121.47592,49.08719,664.21],[-121.47597,49.0872,666.52],[-121.47602,49.0872,668.87],[-121.47607,49.0872,671.22],[-121.47611,49.08722,672.96],[-121.47612,49.08727,673.11],[-121.47614,49.08731,673.8],[-121.47615,49.08734,674.01],[-121.47617,49.08737,674.66],[-121.4762,49.0874,675.7],[-121.47622,49.08743,676.21],[-121.47626,49.08745,677.64],[-121.4763,49.08747,678.99],[-121.47633,49.0875,679.67],[-121.47637,49.08753,680.73],[-121.4764,49.08756,681.37],[-121.47644,49.08758,682.64],[-121.47648,49.08761,683.76],[-121.47651,49.08764,684.5],[-121.47655,49.08767,685.67],[-121.47659,49.08769,687.04],[-121.47662,49.08772,687.85],[-121.47666,49.08775,689.11],[-121.47669,49.08777,689.88],[-121.47674,49.08778,691.32],[-121.47677,49.08776,692.68],[-121.47682,49.08775,694.53],[-121.47687,49.08776,695.98],[-121.47692,49.08777,697.4],[-121.47697,49.08778,698.5],[-121.47701,49.0878,698.94],[-121.47705,49.08782,699.37],[-121.47709,49.08785,699.58],[-121.47713,49.08787,700.02],[-121.47717,49.08789,700.45],[-121.47721,49.0879,701.1],[-121.47725,49.08791,701.65],[-121.4773,49.08792,702.32],[-121.47734,49.08795,702.3],[-121.47736,49.08798,701.89],[-121.47739,49.08802,701.34],[-121.47742,49.08804,701.26],[-121.47746,49.08807,701.3],[-121.47751,49.08805,702.34],[-121.47755,49.08802,703.88],[-121.47752,49.08799,704.21],[-121.47746,49.08797,703.8],[-121.47742,49.08795,703.67],[-121.47742,49.08792,704.47],[-121.4774,49.08788,705.16],[-121.47738,49.08785,705.55],[-121.47737,49.08782,706.12],[-121.47736,49.08779,706.67],[-121.47735,49.08775,707.7],[-121.47734,49.08772,708.47],[-121.47732,49.08768,709.3],[-121.47733,49.08766,710.21],[-121.47734,49.08762,711.81],[-121.47732,49.08759,712.23],[-121.4773,49.08756,712.61],[-121.4773,49.08753,713.57],[-121.47729,49.08749,714.26],[-121.47728,49.08746,714.13],[-121.47728,49.08743,714.32],[-121.47728,49.08746,714.13],[-121.47727,49.08743,714.01],[-121.47726,49.08739,713.96],[-121.47726,49.08736,714.16],[-121.47725,49.08732,714.13],[-121.47723,49.08729,713.74],[-121.47722,49.08726,713.65],[-121.4772,49.08723,713.15],[-121.47718,49.08719,713.43],[-121.47717,49.08716,713.95],[-121.47716,49.08713,714.49],[-121.47714,49.08709,714.99],[-121.47713,49.08706,715.55],[-121.47712,49.08703,716.11],[-121.47711,49.08699,716.99],[-121.4771,49.08696,717.57],[-121.47709,49.08692,718.95],[-121.47708,49.08689,720.13],[-121.47707,49.08694,717.29],[-121.47707,49.08697,716.28],[-121.47706,49.08701,714.72],[-121.47702,49.08699,714.02],[-121.47704,49.087,714.36],[-121.47707,49.08698,715.97],[-121.47709,49.08696,717.24],[-121.47711,49.08693,719.1],[-121.47709,49.08693,718.45],[-121.47709,49.08691,719.46],[-121.47707,49.08689,719.79],[-121.47708,49.08688,720.63],[-121.47709,49.08691,719.46],[-121.47709,49.08694,717.94],[-121.47709,49.0869,719.96],[-121.47709,49.08687,721.48],[-121.47709,49.08684,723.0],[-121.47709,49.0868,725.02],[-121.47709,49.08676,727.04],[-121.47709,49.08673,728.56],[-121.47709,49.0867,730.08],[-121.47709,49.08667,731.6],[-121.47709,49.08663,732.47],[-121.47709,49.0866,733.04],[-121.47709,49.08657,733.62],[-121.47709,49.08653,734.39],[-121.47709,49.08649,735.16],[-121.47709,49.08646,735.73],[-121.47709,49.08643,736.31],[-121.47709,49.08639,737.07],[-121.47709,49.08635,737.46],[-121.47709,49.08632,737.75],[-121.47709,49.08629,738.03],[-121.47709,49.08625,738.41],[-121.47709,49.08622,738.69],[-121.47709,49.08619,738.97],[-121.4771,49.08615,739.65],[-121.47716,49.08614,741.58],[-121.47721,49.08612,743.45],[-121.47724,49.08609,744.53],[-121.47723,49.08606,744.06],[-121.47724,49.08603,744.22],[-121.47725,49.086,744.32],[-121.47725,49.08596,744.08],[-121.47725,49.08592,743.83],[-121.47724,49.08588,743.44],[-121.47724,49.08585,743.28],[-121.47724,49.08581,743.43],[-121.47726,49.08578,743.91],[-121.4773,49.08575,744.49],[-121.47734,49.08573,744.91],[-121.47737,49.0857,745.27],[-121.4774,49.08568,745.52],[-121.47741,49.08564,745.7],[-121.47744,49.08561,745.87],[-121.47747,49.08558,745.97],[-121.47749,49.08555,745.96],[-121.47748,49.08552,745.76],[-121.47745,49.08549,745.61],[-121.47744,49.08545,745.4],[-121.47742,49.08542,745.31],[-121.4774,49.08538,745.19],[-121.4774,49.08534,745.01],[-121.47739,49.08531,744.93],[-121.47739,49.08528,744.8],[-121.4774,49.08525,744.91],[-121.47742,49.0852,745.17],[-121.47744,49.08517,745.34],[-121.47748,49.08513,745.63],[-121.4775,49.0851,745.92],[-121.47751,49.08506,746.84],[-121.47751,49.08502,747.28],[-121.47752,49.08499,748.36],[-121.47753,49.08495,750.23],[-121.47754,49.08491,752.07],[-121.47754,49.08488,753.09],[-121.47754,49.08485,754.1],[-121.47752,49.08482,754.3],[-121.47752,49.08478,755.7],[-121.47753,49.08474,757.47],[-121.47754,49.08471,758.65],[-121.47755,49.08467,759.71],[-121.47756,49.08465,760.4],[-121.47758,49.08461,761.78],[-121.4776,49.08458,762.98],[-121.47762,49.08455,764.15],[-121.47763,49.08452,764.98],[-121.47764,49.08449,765.8],[-121.47761,49.08447,765.14],[-121.47761,49.08444,765.62],[-121.47762,49.0844,766.39],[-121.47765,49.08437,767.64],[-121.47767,49.08434,768.55],[-121.47769,49.08431,769.43],[-121.47771,49.08428,770.28],[-121.47771,49.08425,770.55],[-121.47771,49.08422,770.81],[-121.47772,49.08418,771.43],[-121.47772,49.08415,771.62],[-121.47771,49.08412,771.5],[-121.47766,49.0841,770.37],[-121.47766,49.08407,770.53],[-121.47765,49.08403,770.5],[-121.47765,49.084,770.66],[-121.47765,49.08397,770.81],[-121.47766,49.08393,771.25],[-121.47765,49.0839,771.18],[-121.47765,49.08387,771.42],[-121.47765,49.08383,771.8],[-121.47766,49.0838,772.33],[-121.47766,49.08377,772.62],[-121.47767,49.08374,773.19],[-121.47768,49.08371,773.78],[-121.47769,49.08368,774.4],[-121.4777,49.08363,775.27],[-121.47771,49.08359,776.49],[-121.47772,49.08355,778.07],[-121.47772,49.08353,778.71],[-121.47776,49.0835,780.73],[-121.4778,49.08348,782.34],[-121.47783,49.08345,783.96],[-121.47784,49.08342,785.07],[-121.47787,49.08339,786.69],[-121.47789,49.08336,788.06],[-121.47787,49.08333,788.36],[-121.47788,49.08331,788.86],[-121.47789,49.08329,789.36],[-121.47791,49.08325,790.37],[-121.47792,49.0832,791.27],[-121.47793,49.08316,792.05],[-121.47793,49.08313,792.43],[-121.47795,49.08309,793.51],[-121.47796,49.08306,794.19],[-121.47796,49.08303,794.43],[-121.47797,49.08299,794.99],[-121.47798,49.08296,795.45],[-121.47798,49.08292,795.71],[-121.478,49.08288,796.41],[-121.47801,49.08285,796.79],[-121.47803,49.08282,797.35],[-121.47806,49.08279,798.1],[-121.47809,49.08276,799.13],[-121.47812,49.08274,800.03],[-121.47815,49.08271,800.81],[-121.47818,49.08268,801.44],[-121.47821,49.08265,801.93],[-121.47824,49.08262,802.28],[-121.47829,49.0826,803.0],[-121.47834,49.08259,803.76],[-121.47838,49.08256,803.97],[-121.47841,49.08253,803.82],[-121.47844,49.08251,803.8],[-121.47845,49.08247,804.11],[-121.47842,49.08245,803.97],[-121.47841,49.08241,804.4],[-121.47841,49.08238,804.83],[-121.47842,49.08235,805.41],[-121.47841,49.08231,805.84],[-121.4784,49.08228,806.13],[-121.47839,49.08225,806.42],[-121.47838,49.08221,807.06],[-121.47838,49.08218,808.01],[-121.47838,49.08214,809.29],[-121.47839,49.08211,810.37],[-121.4784,49.08208,811.45],[-121.4784,49.08204,812.71],[-121.47841,49.08204,812.83],[-121.4784,49.08202,813.34],[-121.4784,49.08199,814.28],[-121.47836,49.08197,814.47],[-121.47832,49.08195,814.58],[-121.47831,49.08193,814.85],[-121.47832,49.0819,815.58],[-121.47832,49.08187,816.13],[-121.47826,49.08185,815.56],[-121.47821,49.08184,814.99],[-121.47815,49.08183,814.3],[-121.47818,49.08186,814.1],[-121.47823,49.08187,814.68],[-121.47827,49.08187,815.32],[-121.47822,49.08186,814.73],[-121.47816,49.08186,813.78],[-121.4781,49.08186,812.83],[-121.47805,49.08186,812.15],[-121.47812,49.08186,813.15],[-121.47817,49.08186,813.94],[-121.47811,49.08184,813.46],[-121.47805,49.08184,812.65],[-121.47802,49.08185,812.51],[-121.47803,49.08189,811.43],[-121.47803,49.08194,810.12],[-121.47802,49.08198,809.25],[-121.47801,49.08201,808.62],[-121.478,49.08205,807.8],[-121.478,49.08208,807.17],[-121.47798,49.08211,806.59],[-121.47794,49.08214,806.07],[-121.4779,49.08216,805.78],[-121.47787,49.08219,805.29],[-121.47784,49.08222,804.82],[-121.47782,49.08225,804.18],[-121.47779,49.08228,803.52],[-121.47776,49.08231,802.98],[-121.47773,49.08234,802.55],[-121.47771,49.08237,802.01],[-121.47769,49.08241,801.22],[-121.47767,49.08243,800.93],[-121.47763,49.08245,800.86],[-121.47758,49.08244,801.65],[-121.47753,49.08242,802.69],[-121.47749,49.0824,803.8],[-121.47745,49.08237,805.7],[-121.47741,49.08235,807.4],[-121.47737,49.08232,809.42],[-121.47732,49.0823,811.51],[-121.47727,49.08233,812.09],[-121.4772,49.08232,814.37],[-121.47715,49.08234,814.96],[-121.47709,49.08235,816.15],[-121.47706,49.08238,816.06],[-121.47703,49.0824,816.28],[-121.47698,49.08242,817.07],[-121.47695,49.08245,817.11],[-121.47691,49.08247,817.73],[-121.47688,49.0825,817.86],[-121.47683,49.08252,818.92],[-121.47677,49.0825,821.02],[-121.47675,49.08247,822.28],[-121.47673,49.08242,823.97],[-121.4767,49.08238,825.68],[-121.47668,49.08235,826.88],[-121.47668,49.08232,827.54],[-121.47664,49.08235,827.83],[-121.4766,49.08238,827.97],[-121.47656,49.08239,828.52],[-121.47653,49.08242,828.26],[-121.47649,49.08244,828.39],[-121.47646,49.08247,827.95],[-121.47643,49.08249,827.75],[-121.4764,49.08252,827.69],[-121.47635,49.08253,828.45],[-121.4763,49.08253,829.31],[-121.47625,49.08255,829.96],[-121.47619,49.08255,830.96],[-121.47614,49.08256,831.66],[-121.47609,49.08257,832.6],[-121.47604,49.08258,833.82],[-121.47599,49.0826,834.66],[-121.47594,49.08261,835.62],[-121.47589,49.08261,836.85],[-121.47584,49.08261,838.08],[-121.47581,49.08262,838.47],[-121.47576,49.08264,838.93],[-121.47575,49.08265,838.71],[-121.47571,49.08263,840.79],[-121.47567,49.08264,841.35],[-121.47563,49.08265,841.86],[-121.47559,49.08266,842.33],[-121.47554,49.08266,843.62],[-121.4755,49.08266,844.66],[-121.47547,49.08265,846.09],[-121.47545,49.08262,848.58],[-121.47542,49.08259,851.41],[-121.4754,49.08259,851.99],[-121.47536,49.08259,853.14],[-121.47531,49.08259,854.59],[-121.47526,49.0826,855.1],[-121.47521,49.0826,855.95],[-121.47516,49.0826,856.8],[-121.47512,49.0826,857.48],[-121.47507,49.08259,859.0],[-121.47503,49.08258,860.32],[-121.47496,49.08258,861.21],[-121.4749,49.08258,861.8],[-121.47485,49.08258,862.29],[-121.47482,49.0826,861.57],[-121.47478,49.08262,861.07],[-121.47472,49.08263,861.41],[-121.47466,49.08263,862.16],[-121.47461,49.08263,862.79],[-121.47455,49.08264,863.12],[-121.4745,49.08264,863.76],[-121.47444,49.08265,864.11],[-121.47438,49.08265,864.77],[-121.47434,49.08265,865.22],[-121.47428,49.08266,865.53],[-121.47422,49.08266,866.21],[-121.47418,49.08266,866.66],[-121.47412,49.08266,866.91],[-121.47409,49.08264,867.6],[-121.47409,49.0826,868.86],[-121.4741,49.08257,869.79],[-121.47414,49.08256,870.08],[-121.47418,49.08256,869.94],[-121.47422,49.08254,870.26],[-121.47425,49.08252,870.71],[-121.47429,49.08251,870.76],[-121.47433,49.08249,871.13],[-121.47438,49.08248,871.1],[-121.47444,49.08247,871.0],[-121.47449,49.08246,870.9],[-121.47454,49.08244,871.21],[-121.47459,49.08243,871.22],[-121.47465,49.08242,871.22],[-121.4747,49.08241,871.35],[-121.47474,49.0824,871.66],[-121.4748,49.0824,871.6],[-121.47486,49.08239,872.04],[-121.47492,49.08238,872.52],[-121.47497,49.08238,872.49],[-121.47503,49.08237,872.79],[-121.47503,49.08233,875.01],[-121.47506,49.0823,876.56],[-121.47508,49.08227,878.22],[-121.47511,49.08225,879.34],[-121.47513,49.08222,881.1],[-121.47515,49.08219,882.51],[-121.47517,49.08216,883.91],[-121.47518,49.08213,885.32],[-121.47519,49.0821,886.72],[-121.47522,49.08208,887.66],[-121.47525,49.08205,889.06],[-121.47529,49.08202,890.31],[-121.47534,49.08201,890.15],[-121.47538,49.08199,890.64],[-121.47541,49.08197,891.29],[-121.47543,49.08194,892.51],[-121.47547,49.08192,892.74],[-121.47552,49.0819,892.84],[-121.47556,49.08188,892.96],[-121.47561,49.08186,892.27],[-121.47565,49.08184,891.96],[-121.47569,49.08181,892.17],[-121.47573,49.0818,891.66],[-121.47577,49.08177,892.13],[-121.4758,49.08175,892.46],[-121.47583,49.08172,893.37],[-121.47578,49.08173,893.79],[-121.47573,49.08176,893.41],[-121.47573,49.08175,893.85],[-121.47578,49.08174,893.33],[-121.47584,49.08174,892.13],[-121.47589,49.08173,891.4],[-121.47593,49.08171,891.51],[-121.47597,49.08169,891.71],[-121.47599,49.08165,893.57],[-121.47602,49.08162,894.6],[-121.47604,49.08159,895.82],[-121.47608,49.08157,895.97],[-121.47613,49.08156,894.93],[-121.47617,49.08155,893.72],[-121.47622,49.08155,891.53],[-121.47628,49.08155,888.91],[-121.47633,49.08154,887.31],[-121.47638,49.08153,885.75],[-121.47643,49.08152,883.45],[-121.47648,49.0815,881.56],[-121.47651,49.08147,881.44],[-121.47654,49.08143,881.85],[-121.47657,49.0814,881.64],[-121.4766,49.08137,881.05],[-121.47662,49.08134,880.93],[-121.47663,49.08131,881.46],[-121.47665,49.08127,881.76],[-121.47667,49.08124,881.73],[-121.4767,49.08121,881.51],[-121.47674,49.08118,880.98],[-121.47677,49.08116,880.58],[-121.4768,49.08113,880.78],[-121.47682,49.0811,881.62],[-121.47684,49.08106,883.4],[-121.47685,49.08103,884.98],[-121.47686,49.08098,887.92],[-121.47688,49.08095,889.34],[-121.4769,49.08091,891.54],[-121.47691,49.08087,894.08],[-121.47693,49.08084,895.79],[-121.47694,49.08081,896.84],[-121.47695,49.08077,897.86],[-121.47695,49.08074,898.84],[-121.47697,49.0807,899.49],[-121.47698,49.08068,899.83],[-121.47702,49.08065,899.58],[-121.47704,49.08062,900.0],[-121.47706,49.08059,900.45],[-121.47708,49.08056,900.94],[-121.47711,49.08053,901.15],[-121.47713,49.0805,901.59],[-121.47715,49.08046,902.28],[-121.47717,49.08044,902.22],[-121.47719,49.08041,902.42],[-121.47722,49.08038,902.15],[-121.47725,49.08035,902.32],[-121.47728,49.08032,902.54],[-121.4773,49.08029,902.97],[-121.47733,49.08026,903.78],[-121.47734,49.08023,905.39],[-121.47736,49.0802,906.65],[-121.47737,49.08017,908.12],[-121.47738,49.08015,908.96],[-121.4774,49.08012,909.98],[-121.47741,49.08008,911.81],[-121.47743,49.08005,912.62],[-121.47744,49.08002,913.76],[-121.47746,49.07998,915.05],[-121.47748,49.07995,915.94],[-121.47749,49.07992,917.32],[-121.47751,49.07989,918.42],[-121.47752,49.07986,919.96],[-121.47746,49.07984,923.33],[-121.47742,49.07982,926.01],[-121.4774,49.07979,928.44],[-121.47739,49.07976,930.47],[-121.4774,49.07973,931.8],[-121.47741,49.0797,933.06],[-121.47744,49.07972,931.05],[-121.47745,49.07969,932.21],[-121.47745,49.07967,933.2],[-121.47747,49.07964,933.95],[-121.47748,49.07961,935.02],[-121.47749,49.07958,936.05],[-121.47753,49.07955,936.26],[-121.47757,49.07953,936.15],[-121.47761,49.0795,936.55],[-121.47763,49.07947,937.48],[-121.47764,49.07944,938.62],[-121.47766,49.07941,939.12],[-121.47768,49.07937,939.89],[-121.47769,49.07934,940.58],[-121.47771,49.07931,940.93],[-121.47772,49.07928,941.56],[-121.47773,49.07924,942.47],[-121.47776,49.07921,942.36],[-121.47777,49.07918,942.89],[-121.47778,49.07915,943.05],[-121.4778,49.07911,942.69],[-121.47782,49.07908,942.26],[-121.47783,49.07904,942.22],[-121.47785,49.07901,941.79],[-121.47787,49.07898,941.36],[-121.47788,49.07895,941.25],[-121.47789,49.07892,941.14],[-121.4779,49.07888,941.16],[-121.4779,49.07885,941.56],[-121.47791,49.07882,941.6],[-121.47791,49.07878,942.12],[-121.47791,49.07875,942.5],[-121.47792,49.07872,942.5],[-121.47792,49.07875,942.12],[-121.47792,49.07872,942.5],[-121.47794,49.0787,941.95],[-121.47795,49.07866,942.01],[-121.47789,49.07865,944.62],[-121.47783,49.07865,947.12],[-121.47778,49.07864,949.39],[-121.47782,49.07861,948.26],[-121.47785,49.07859,948.47],[-121.47789,49.07856,948.9],[-121.47794,49.07855,947.32],[-121.47799,49.07854,945.68],[-121.47801,49.07853,945.42],[-121.47802,49.0785,946.94],[-121.47804,49.07847,947.93],[-121.47807,49.07844,948.45],[-121.4781,49.07841,949.04],[-121.47812,49.07838,950.04],[-121.47814,49.07835,951.0],[-121.47817,49.07831,951.83],[-121.47819,49.07828,952.4],[-121.47821,49.07824,953.44],[-121.47823,49.0782,954.43],[-121.47824,49.07817,955.41],[-121.47829,49.07815,953.81],[-121.47836,49.07814,951.29],[-121.4784,49.07812,951.14],[-121.47844,49.07809,951.56],[-121.47849,49.07807,951.29],[-121.47853,49.07805,951.28],[-121.47856,49.07802,951.73],[-121.47859,49.07799,952.02],[-121.47863,49.07797,951.42],[-121.47862,49.07799,951.05],[-121.47864,49.07796,951.44],[-121.47867,49.07794,951.13],[-121.4787,49.07791,951.21],[-121.47873,49.07789,950.94],[-121.47875,49.07786,951.39],[-121.47878,49.07784,951.15],[-121.47882,49.07781,950.98],[-121.47887,49.0778,949.74],[-121.47893,49.07779,948.35],[-121.47897,49.07779,947.21],[-121.47902,49.07778,946.14],[-121.47904,49.07781,944.5],[-121.47903,49.07782,944.42],[-121.47899,49.07781,945.9],[-121.47896,49.07778,947.87],[-121.47894,49.07775,950.09],[-121.47895,49.07773,950.92],[-121.47896,49.0777,952.29],[-121.47897,49.07767,953.65],[-121.47898,49.07763,955.54],[-121.47899,49.0776,956.86],[-121.479,49.07757,958.17],[-121.47901,49.07754,959.46],[-121.47902,49.07751,960.74],[-121.47905,49.07746,961.81],[-121.47909,49.07743,961.64],[-121.47912,49.0774,961.88],[-121.47916,49.07737,961.83],[-121.47919,49.07735,961.89],[-121.47923,49.07734,961.32],[-121.47927,49.07733,960.74],[-121.47923,49.07736,960.45],[-121.47923,49.07733,961.75],[-121.47928,49.0773,961.78],[-121.47932,49.07728,961.64],[-121.47937,49.07725,961.68],[-121.47941,49.07722,961.91],[-121.47945,49.07719,961.68],[-121.47949,49.07716,962.22],[-121.47946,49.07713,962.95],[-121.47939,49.07712,964.44],[-121.47933,49.07713,965.6],[-121.47937,49.07713,964.69],[-121.47942,49.07711,963.97],[-121.47947,49.07708,964.03],[-121.47951,49.07706,964.41],[-121.47951,49.07703,965.08],[-121.47955,49.07699,965.95],[-121.47958,49.07697,966.4],[-121.47961,49.07694,967.09],[-121.47965,49.07696,966.62],[-121.47968,49.07699,965.88],[-121.47972,49.07697,966.36],[-121.47973,49.07694,967.18],[-121.47977,49.07693,967.84],[-121.4798,49.07695,967.69],[-121.47984,49.07698,967.32],[-121.47981,49.07698,967.01],[-121.47982,49.07693,968.39],[-121.47983,49.07687,969.88],[-121.47984,49.07683,970.92],[-121.47988,49.07681,971.88],[-121.47983,49.07684,970.57],[-121.4798,49.07686,969.75],[-121.47978,49.07683,970.18],[-121.47978,49.07682,970.41],[-121.47979,49.07685,969.85],[-121.47978,49.07687,969.29],[-121.47973,49.07687,968.7],[-121.47978,49.07687,969.29],[-121.47983,49.07687,969.88],[-121.47984,49.07683,970.92],[-121.47982,49.07681,971.13],[-121.47983,49.0768,971.49],[-121.47982,49.07679,971.59],[-121.47977,49.07679,970.95],[-121.47974,49.0768,970.35],[-121.47976,49.0768,970.6],[-121.4798,49.07682,970.65],[-121.47982,49.07682,970.9],[-121.47982,49.07685,970.22],[-121.47982,49.07688,969.53],[-121.47982,49.07686,969.99],[-121.47981,49.07689,969.19],[-121.47978,49.07688,969.06],[-121.47977,49.07685,969.61],[-121.47977,49.07683,970.06],[-121.47978,49.07684,969.96],[-121.47979,49.07683,970.3],[-121.4798,49.07681,970.88],[-121.47981,49.07678,971.69],[-121.47981,49.07673,972.82],[-121.47981,49.07667,974.19],[-121.47981,49.07664,975.07],[-121.47981,49.07661,975.97],[-121.47981,49.07658,976.87],[-121.47982,49.07655,977.89],[-121.47982,49.07652,978.79],[-121.47982,49.07648,979.98],[-121.47982,49.07645,980.88],[-121.47982,49.07643,981.48],[-121.47982,49.07639,982.67],[-121.47979,49.07636,983.3],[-121.47973,49.07635,983.3],[-121.47969,49.07633,983.77],[-121.47966,49.07631,984.36],[-121.47961,49.07629,984.97],[-121.47958,49.07627,985.7],[-121.47962,49.07629,984.99],[-121.47966,49.07632,984.01],[-121.47969,49.07635,983.09],[-121.47973,49.07637,982.66],[-121.47975,49.07638,982.47],[-121.47974,49.07635,983.34],[-121.47973,49.07631,984.57],[-121.47972,49.07629,985.2],[-121.47975,49.07626,986.14],[-121.47975,49.07622,987.37],[-121.47976,49.07619,988.23],[-121.47977,49.07616,989.05],[-121.47979,49.07613,989.74],[-121.47986,49.07611,989.55],[-121.47992,49.0761,989.22],[-121.47991,49.07607,990.3],[-121.47989,49.07604,991.49],[-121.47993,49.07601,992.03],[-121.47994,49.07598,992.9],[-121.47994,49.07595,993.87],[-121.47994,49.07591,995.16],[-121.47992,49.07589,996.03],[-121.47988,49.07587,997.11],[-121.47984,49.07584,998.51],[-121.47982,49.0758,1000.03],[-121.47977,49.07578,1001.12],[-121.47975,49.07576,1001.89],[-121.47974,49.07572,1003.15],[-121.47973,49.0757,1003.8],[-121.47972,49.07567,1004.73],[-121.4797,49.07564,1005.83],[-121.47969,49.07561,1006.8],[-121.47969,49.07559,1007.37],[-121.4797,49.07555,1008.3],[-121.4797,49.07552,1008.59],[-121.4797,49.07549,1008.89],[-121.4797,49.07546,1009.19],[-121.4797,49.07542,1009.59],[-121.4797,49.07539,1009.88],[-121.4797,49.07535,1010.28],[-121.47969,49.07532,1010.6],[-121.47969,49.07529,1010.88],[-121.47968,49.07526,1011.43],[-121.47967,49.07523,1012.14],[-121.47966,49.0752,1012.83],[-121.47965,49.07516,1013.75],[-121.47965,49.07513,1014.45],[-121.47965,49.0751,1015.15],[-121.47965,49.07507,1015.85],[-121.47965,49.07503,1016.78],[-121.47967,49.07499,1017.77],[-121.4797,49.07497,1018.21],[-121.47974,49.07493,1018.8],[-121.47976,49.0749,1019.23],[-121.47981,49.07489,1019.56],[-121.47985,49.07487,1020.05],[-121.47987,49.07484,1020.65],[-121.47988,49.07481,1021.22],[-121.47984,49.07479,1021.23],[-121.4798,49.07477,1021.18],[-121.47976,49.07474,1021.19],[-121.47971,49.07472,1021.16],[-121.47967,49.0747,1021.82],[-121.47964,49.07468,1022.39],[-121.47961,49.07466,1022.97],[-121.47959,49.07463,1023.58],[-121.47962,49.0746,1023.59],[-121.47963,49.07458,1023.7],[-121.47963,49.07455,1024.06],[-121.47962,49.07452,1024.56],[-121.4796,49.07455,1024.45],[-121.47964,49.07454,1024.05],[-121.47969,49.07453,1023.5],[-121.47974,49.07452,1023.42],[-121.47979,49.07451,1024.21],[-121.47983,49.0745,1024.87],[-121.47986,49.07448,1025.54],[-121.47985,49.07445,1025.77],[-121.47984,49.07442,1025.87],[-121.47989,49.07441,1026.66],[-121.47993,49.07444,1027.02],[-121.47994,49.07448,1026.65],[-121.47996,49.07451,1026.51],[-121.48,49.07449,1027.34],[-121.48001,49.07446,1028.07],[-121.48001,49.07443,1028.39],[-121.48001,49.0744,1028.61],[-121.48002,49.07437,1029.11],[-121.48,49.07433,1028.82],[-121.47996,49.07429,1028.54],[-121.47995,49.07425,1028.68],[-121.47994,49.07422,1028.75],[-121.47994,49.07419,1028.97],[-121.47994,49.07416,1029.33],[-121.47993,49.07413,1030.08],[-121.47992,49.07409,1031.14],[-121.47991,49.07405,1032.2],[-121.47989,49.07402,1032.85],[-121.47988,49.07399,1033.63],[-121.47988,49.07395,1034.85],[-121.47987,49.07392,1035.65],[-121.47986,49.07388,1036.9],[-121.47985,49.07386,1037.74],[-121.47981,49.07383,1038.78],[-121.47977,49.07381,1039.39],[-121.47978,49.07377,1041.44],[-121.47978,49.07373,1043.39],[-121.47979,49.0737,1044.92],[-121.47978,49.07367,1046.33],[-121.47978,49.07364,1047.8],[-121.47977,49.07359,1050.4],[-121.47976,49.07356,1052.14],[-121.47977,49.07353,1053.88],[-121.4798,49.0735,1055.52],[-121.47982,49.07347,1057.09],[-121.47983,49.07345,1058.12],[-121.47983,49.07348,1056.5],[-121.47979,49.07347,1057.26],[-121.47977,49.07344,1059.11],[-121.47975,49.07341,1061.05],[-121.47973,49.07338,1063.06],[-121.47972,49.07335,1065.01],[-121.47971,49.07332,1066.57],[-121.47969,49.07329,1067.81],[-121.47964,49.07328,1068.79],[-121.4796,49.07328,1069.3],[-121.47958,49.07325,1070.7],[-121.47962,49.0732,1071.95],[-121.47965,49.07316,1072.88],[-121.47969,49.07314,1072.85],[-121.47974,49.07312,1072.9],[-121.47977,49.07309,1073.95],[-121.47981,49.07306,1075.15],[-121.47985,49.07303,1076.2],[-121.47983,49.073,1076.99],[-121.4798,49.07297,1077.74],[-121.47976,49.07295,1078.18],[-121.47972,49.07293,1078.67],[-121.47976,49.0729,1079.62],[-121.47982,49.07291,1079.54],[-121.47986,49.07293,1079.11],[-121.47991,49.07293,1079.29],[-121.47988,49.07291,1079.76],[-121.47982,49.07289,1080.12],[-121.47978,49.07288,1080.26],[-121.47973,49.07287,1080.37],[-121.47977,49.07285,1081.09],[-121.47983,49.07284,1081.6],[-121.47988,49.07283,1082.06],[-121.47992,49.07281,1082.78],[-121.47988,49.07278,1083.5],[-121.47987,49.07275,1084.23],[-121.47984,49.07272,1084.91],[-121.47987,49.07269,1085.72],[-121.47991,49.07267,1086.26],[-121.47994,49.07265,1086.74],[-121.4799,49.07263,1087.22],[-121.47985,49.07262,1087.48],[-121.47979,49.07263,1087.24],[-121.47975,49.07264,1086.97],[-121.4797,49.07262,1087.88],[-121.47974,49.0726,1088.1],[-121.47978,49.07257,1088.88],[-121.47979,49.07255,1089.4],[-121.47977,49.07252,1090.28],[-121.47972,49.07252,1090.44],[-121.4797,49.07255,1089.79],[-121.47966,49.07258,1089.47],[-121.47962,49.0726,1089.52],[-121.47957,49.07262,1089.82],[-121.47953,49.07263,1090.26],[-121.47948,49.07262,1091.17],[-121.47946,49.07258,1091.94],[-121.47945,49.07255,1092.4],[-121.4795,49.07254,1092.02],[-121.47954,49.07251,1092.14],[-121.47956,49.07248,1091.99],[-121.47957,49.07245,1091.65],[-121.47961,49.07243,1091.15],[-121.47966,49.07241,1090.55],[-121.47965,49.07237,1090.24],[-121.47966,49.07234,1089.85],[-121.47967,49.0723,1089.35],[-121.47967,49.07226,1088.95],[-121.4797,49.07229,1088.95],[-121.47972,49.07226,1088.43],[-121.47973,49.07223,1088.16],[-121.47974,49.07219,1088.57],[-121.47975,49.07215,1089.18],[-121.47976,49.07211,1089.84],[-121.47977,49.07208,1090.4],[-121.4798,49.07206,1091.25],[-121.47982,49.07203,1092.11],[-121.47984,49.07199,1093.2],[-121.47984,49.07195,1093.87],[-121.47984,49.07192,1095.15],[-121.47978,49.07193,1093.22],[-121.47973,49.07196,1091.02],[-121.47968,49.07196,1091.86],[-121.47965,49.07194,1093.07],[-121.47967,49.07193,1093.13],[-121.47971,49.07191,1093.28],[-121.47973,49.07187,1095.44],[-121.47973,49.07183,1097.72],[-121.47972,49.0718,1099.37],[-121.47971,49.07177,1101.3],[-121.4797,49.07174,1103.22],[-121.4797,49.0717,1105.5],[-121.4797,49.07167,1107.21],[-121.47966,49.0717,1106.25],[-121.47962,49.07169,1107.56],[-121.47957,49.07168,1109.02],[-121.47951,49.07168,1110.13],[-121.47946,49.07167,1111.55],[-121.47947,49.07165,1112.25],[-121.47947,49.07162,1113.53],[-121.47943,49.07161,1114.86],[-121.47939,49.07163,1115.15],[-121.47937,49.07166,1114.43],[-121.47934,49.07169,1113.77],[-121.47931,49.07172,1113.0],[-121.47927,49.0717,1115.19],[-121.47926,49.07167,1117.13],[-121.47925,49.07163,1119.18],[-121.47928,49.0716,1119.62],[-121.47929,49.07158,1120.19],[-121.4793,49.07155,1121.2],[-121.47929,49.07152,1122.78],[-121.47927,49.07149,1124.66],[-121.47928,49.07146,1125.66],[-121.47927,49.07143,1127.25],[-121.47927,49.0714,1128.54],[-121.47929,49.07137,1129.1],[-121.47935,49.07137,1127.36],[-121.47938,49.07135,1127.15],[-121.4794,49.07132,1127.55],[-121.47943,49.07131,1126.99],[-121.47938,49.0713,1128.81],[-121.47936,49.07127,1130.41],[-121.47937,49.07123,1131.45],[-121.47939,49.0712,1131.82],[-121.47941,49.07117,1132.18],[-121.47939,49.0712,1131.82],[-121.47937,49.0712,1132.45],[-121.47934,49.0712,1133.38],[-121.47934,49.07122,1132.71],[-121.47935,49.07118,1133.74],[-121.47937,49.07121,1132.11],[-121.47935,49.07124,1131.73],[-121.47936,49.07125,1131.08],[-121.47936,49.07125,1131.08],[-121.47936,49.07122,1132.09],[-121.47937,49.07119,1132.78],[-121.47938,49.07117,1133.13],[-121.4794,49.07117,1132.5],[-121.47936,49.07118,1133.43],[-121.47935,49.07119,1133.41],[-121.47937,49.07117,1133.45],[-121.47937,49.07113,1134.78],[-121.47933,49.07113,1136.07],[-121.47934,49.07114,1135.41],[-121.47934,49.07118,1134.06],[-121.47935,49.07121,1132.73],[-121.47935,49.07124,1131.73],[-121.47933,49.07121,1133.36],[-121.47931,49.07121,1133.98],[-121.47934,49.0712,1133.38],[-121.47939,49.0712,1131.82],[-121.47935,49.07121,1132.73],[-121.47931,49.07123,1133.3],[-121.47928,49.0712,1135.26],[-121.47926,49.07117,1136.93],[-121.47925,49.07114,1138.29],[-121.47923,49.07113,1139.28],[-121.47921,49.07111,1140.6],[-121.4792,49.07107,1141.03],[-121.4792,49.07103,1141.14],[-121.4792,49.071,1141.22],[-121.47924,49.07098,1139.85],[-121.47929,49.07097,1138.06],[-121.47932,49.07094,1136.97],[-121.47934,49.07092,1136.21],[-121.47937,49.07088,1135.03],[-121.47939,49.07085,1134.19],[-121.47942,49.07082,1132.95],[-121.47943,49.07079,1132.53],[-121.47942,49.07076,1132.85],[-121.47944,49.07073,1132.15],[-121.47944,49.07069,1132.13],[-121.47944,49.07066,1132.13],[-121.47945,49.07063,1131.9],[-121.47946,49.07059,1131.75],[-121.47945,49.07056,1131.92],[-121.47945,49.07053,1132.29],[-121.47946,49.07049,1132.72],[-121.47946,49.07047,1133.01],[-121.47947,49.07043,1133.44],[-121.47947,49.0704,1133.87],[-121.47948,49.07037,1134.16],[-121.47951,49.07034,1134.16],[-121.47953,49.0703,1134.45],[-121.47958,49.07028,1134.02],[-121.47961,49.07026,1133.8],[-121.47964,49.07023,1133.63],[-121.47967,49.0702,1133.42],[-121.47964,49.07017,1134.19],[-121.47963,49.07014,1134.65],[-121.47967,49.07011,1134.19],[-121.47968,49.07008,1134.25],[-121.47969,49.07005,1134.29],[-121.4797,49.07001,1134.4],[-121.47972,49.06998,1134.63],[-121.47973,49.06995,1135.3],[-121.47973,49.06992,1136.15],[-121.47973,49.06989,1137.0],[-121.47974,49.06986,1137.61],[-121.47974,49.06982,1138.72],[-121.47974,49.06979,1139.55],[-121.47974,49.06976,1140.38],[-121.47973,49.06973,1141.53],[-121.47973,49.06969,1141.54],[-121.47975,49.06967,1140.86],[-121.47975,49.06963,1140.67],[-121.47975,49.0696,1140.53],[-121.47974,49.06957,1140.57],[-121.47974,49.06953,1140.35],[-121.47975,49.0695,1140.06],[-121.47976,49.06947,1139.82],[-121.4798,49.06944,1139.57],[-121.47985,49.06943,1139.54],[-121.4799,49.06942,1139.56],[-121.47995,49.0694,1140.0],[-121.47999,49.06939,1140.2],[-121.48003,49.06937,1141.8],[-121.48007,49.06936,1143.25],[-121.48013,49.06934,1145.41],[-121.48019,49.06933,1147.12],[-121.48018,49.06929,1147.71],[-121.48013,49.06928,1146.98],[-121.48009,49.06925,1147.13],[-121.48006,49.06923,1147.32],[-121.48001,49.06922,1147.02],[-121.47997,49.06921,1147.14],[-121.47995,49.06918,1148.15],[-121.47994,49.06915,1148.77],[-121.47992,49.06913,1148.92],[-121.47995,49.0691,1149.38],[-121.47998,49.06908,1149.61],[-121.47999,49.06904,1149.94],[-121.48002,49.069,1150.26],[-121.48004,49.06897,1150.5],[-121.48006,49.06894,1150.71],[-121.48007,49.06891,1150.89],[-121.48006,49.06888,1150.98],[-121.48007,49.06885,1150.93],[-121.48007,49.06882,1150.88],[-121.48007,49.06878,1150.81],[-121.48007,49.06873,1150.72],[-121.48007,49.0687,1150.66],[-121.48006,49.06866,1150.53],[-121.48006,49.06863,1150.47],[-121.48005,49.0686,1150.59],[-121.48004,49.06856,1151.34],[-121.48,49.06854,1151.54],[-121.47995,49.06855,1151.88],[-121.47991,49.06853,1152.67],[-121.47988,49.0685,1153.44],[-121.47987,49.06847,1153.97],[-121.47986,49.06843,1154.61],[-121.47985,49.0684,1155.08],[-121.47984,49.06837,1155.51],[-121.47984,49.06835,1155.78],[-121.47983,49.06832,1156.42],[-121.47982,49.06829,1157.4],[-121.47979,49.06826,1158.45],[-121.47977,49.06824,1159.19],[-121.47976,49.06821,1160.26],[-121.47975,49.06818,1161.35],[-121.47973,49.06814,1162.9],[-121.47971,49.06811,1164.32],[-121.4797,49.06808,1165.66],[-121.47968,49.06806,1166.9],[-121.47969,49.0681,1165.16],[-121.47972,49.06813,1163.37],[-121.47975,49.06814,1162.75],[-121.47975,49.06813,1163.1],[-121.47975,49.06814,1162.75],[-121.47975,49.06813,1163.1],[-121.47975,49.06812,1163.45],[-121.47976,49.06808,1164.75],[-121.47976,49.06803,1166.57],[-121.47972,49.068,1168.26],[-121.48018,49.06757,1175.65],[-121.48002,49.06767,1173.27],[-121.47987,49.06776,1174.34],[-121.47977,49.06783,1174.0],[-121.47965,49.0679,1174.13],[-121.47965,49.06785,1176.15],[-121.4807,49.06679,1211.96],[-121.48129,49.06639,1251.04],[-121.48095,49.06673,1226.9],[-121.4807,49.06698,1204.49],[-121.48048,49.06719,1193.56],[-121.47984,49.06784,1172.28],[-121.47976,49.06792,1170.76],[-121.47972,49.06797,1169.45],[-121.47969,49.068,1169.04],[-121.47963,49.06806,1168.15],[-121.47966,49.06801,1169.41],[-121.47969,49.06795,1171.04],[-121.47971,49.06789,1172.89],[-121.47972,49.06791,1171.82],[-121.47969,49.06788,1173.84],[-121.47969,49.06785,1175.04],[-121.4797,49.06782,1175.96],[-121.47972,49.06779,1176.58],[-121.47973,49.0678,1175.96],[-121.47971,49.06777,1177.66],[-121.47971,49.06774,1178.86],[-121.47971,49.0677,1180.46],[-121.47975,49.06768,1180.1],[-121.47981,49.06766,1179.1],[-121.47983,49.06765,1178.84],[-121.47981,49.06762,1180.45],[-121.4798,49.06758,1182.16],[-121.47976,49.06756,1184.27],[-121.47973,49.06753,1186.52],[-121.47977,49.06752,1185.38],[-121.47975,49.06748,1187.51],[-121.47973,49.06747,1188.57],[-121.47971,49.06744,1190.15],[-121.47975,49.06741,1189.65],[-121.47978,49.06738,1189.62],[-121.47977,49.06735,1190.89],[-121.47978,49.06732,1191.57],[-121.47978,49.06729,1192.55],[-121.47977,49.06726,1193.76],[-121.47972,49.06726,1194.98],[-121.47969,49.06723,1196.71],[-121.47971,49.0672,1196.84],[-121.4797,49.06717,1197.78],[-121.47965,49.06716,1199.48],[-121.47961,49.06717,1200.44],[-121.47958,49.0672,1200.62],[-121.47952,49.06721,1202.12],[-121.47947,49.0672,1203.82],[-121.47941,49.0672,1205.82],[-121.47939,49.06717,1207.35],[-121.47936,49.06715,1209.02],[-121.47938,49.06711,1209.34],[-121.47937,49.06713,1209.18],[-121.47933,49.06711,1211.28],[-121.47929,49.06709,1213.42],[-121.47926,49.0671,1214.3],[-121.47922,49.06711,1215.56],[-121.47926,49.0671,1214.3],[-121.47924,49.06708,1215.7],[-121.47921,49.06706,1217.51],[-121.47926,49.06707,1215.2],[-121.4792,49.06705,1218.23],[-121.47915,49.06703,1220.7],[-121.47911,49.06701,1222.45],[-121.47911,49.06697,1223.66],[-121.47914,49.06695,1223.5],[-121.47914,49.06692,1224.29],[-121.47914,49.06689,1225.04],[-121.47911,49.06686,1226.56],[-121.47908,49.06683,1228.07],[-121.47907,49.0668,1229.08],[-121.47905,49.06683,1228.82],[-121.47905,49.06685,1228.32],[-121.47905,49.06683,1228.82],[-121.47908,49.06679,1229.08],[-121.4791,49.06676,1229.33],[-121.4791,49.06672,1230.34],[-121.47911,49.06669,1230.84],[-121.47912,49.06666,1231.4],[-121.47915,49.06663,1231.62],[-121.47915,49.06659,1232.92],[-121.47915,49.06656,1233.9],[-121.47915,49.06653,1234.88],[-121.47914,49.0665,1236.13],[-121.47914,49.06647,1237.11],[-121.47912,49.06643,1238.99],[-121.47911,49.0664,1240.26],[-121.4791,49.06637,1240.94],[-121.4791,49.06634,1240.96],[-121.47909,49.0663,1241.3],[-121.47909,49.06627,1241.33],[-121.47909,49.06624,1241.36],[-121.47908,49.0662,1241.71],[-121.47908,49.06617,1241.74],[-121.47907,49.06613,1242.11],[-121.47908,49.0661,1241.78],[-121.47908,49.06606,1241.68],[-121.47908,49.06603,1241.61],[-121.47908,49.066,1241.53],[-121.47908,49.06597,1241.46],[-121.47909,49.06593,1241.01],[-121.47909,49.0659,1240.93],[-121.4791,49.06587,1240.5],[-121.4791,49.06583,1240.41],[-121.4791,49.0658,1240.46],[-121.4791,49.06577,1240.52],[-121.47909,49.06574,1240.91],[-121.47909,49.06571,1240.96],[-121.47905,49.06568,1242.29],[-121.47903,49.06565,1242.93],[-121.47901,49.06562,1243.54],[-121.47899,49.0656,1244.13],[-121.47895,49.0656,1245.33],[-121.47893,49.06557,1245.85],[-121.47895,49.06554,1245.23],[-121.47893,49.06551,1245.75],[-121.4789,49.06548,1246.45],[-121.4789,49.06545,1246.36],[-121.47886,49.06544,1247.54],[-121.47886,49.06547,1247.67],[-121.47883,49.06545,1248.58],[-121.4788,49.06543,1249.46],[-121.47875,49.06541,1250.95],[-121.47872,49.0654,1251.84],[-121.47869,49.06539,1252.71],[-121.47873,49.06538,1251.36],[-121.47878,49.06537,1249.73],[-121.47876,49.06535,1250.21],[-121.47879,49.06532,1249.11],[-121.47879,49.06529,1248.92],[-121.4788,49.06525,1248.89],[-121.4788,49.06522,1249.25],[-121.47881,49.06519,1249.31],[-121.47882,49.06515,1249.48],[-121.47881,49.06512,1250.14],[-121.47878,49.06509,1251.43],[-121.47877,49.06506,1252.11],[-121.47874,49.06503,1253.44],[-121.47874,49.06499,1253.86],[-121.47874,49.06495,1253.99],[-121.47873,49.06492,1254.39],[-121.47871,49.06489,1255.08],[-121.47871,49.06486,1255.15],[-121.4787,49.06482,1255.53],[-121.47868,49.06479,1256.14],[-121.47867,49.06476,1256.46],[-121.47867,49.06472,1256.58],[-121.47871,49.0647,1256.11],[-121.47876,49.0647,1254.8],[-121.4788,49.0647,1253.74],[-121.47879,49.06467,1254.7],[-121.4788,49.06464,1255.1],[-121.47882,49.06461,1255.16],[-121.47885,49.06458,1254.83],[-121.47889,49.06456,1253.9],[-121.47887,49.06452,1255.31],[-121.47888,49.0645,1255.33],[-121.47889,49.0645,1254.97],[-121.4789,49.06449,1254.91],[-121.4789,49.06445,1255.62],[-121.47891,49.06441,1256.1],[-121.47892,49.06438,1256.4],[-121.47893,49.06434,1256.9],[-121.47898,49.06433,1255.9],[-121.47903,49.06432,1254.91],[-121.47908,49.06431,1253.94],[-121.47911,49.06428,1253.86],[-121.47914,49.06425,1253.8],[-121.47918,49.06423,1253.51],[-121.47921,49.06421,1253.64],[-121.47924,49.06418,1253.95],[-121.47925,49.06415,1254.32],[-121.47927,49.06411,1254.62],[-121.47929,49.06408,1254.78],[-121.4793,49.06405,1255.04],[-121.47931,49.06402,1255.29],[-121.47932,49.06398,1255.66],[-121.47934,49.06394,1255.88],[-121.47934,49.06391,1256.25],[-121.47935,49.06388,1256.69],[-121.47936,49.06384,1258.03],[-121.47937,49.0638,1259.36],[-121.47938,49.06377,1260.31],[-121.47938,49.06373,1261.78],[-121.47939,49.0637,1262.72],[-121.47939,49.06367,1263.82],[-121.47939,49.06363,1265.29],[-121.47935,49.06359,1267.71],[-121.47931,49.06356,1269.9],[-121.47931,49.06353,1271.36],[-121.47933,49.06349,1272.91],[-121.47935,49.06347,1273.48],[-121.47933,49.06343,1275.8],[-121.47933,49.0634,1277.25],[-121.47935,49.06337,1278.28],[-121.47936,49.06333,1279.91],[-121.47937,49.0633,1280.48],[-121.47935,49.06327,1281.71],[-121.47931,49.06325,1283.15],[-121.47927,49.06323,1284.61],[-121.47928,49.0632,1285.2],[-121.47928,49.06317,1286.02],[-121.47923,49.06317,1287.2],[-121.4792,49.06314,1288.76],[-121.47921,49.06312,1289.09],[-121.47924,49.06314,1287.8],[-121.4792,49.06312,1289.33],[-121.47915,49.06311,1290.61],[-121.4791,49.0631,1291.39],[-121.47909,49.06306,1292.45],[-121.47909,49.06303,1292.49],[-121.47908,49.063,1292.49],[-121.47906,49.06297,1292.58],[-121.47905,49.06294,1292.6],[-121.47903,49.06291,1292.72],[-121.47903,49.06295,1292.79],[-121.47901,49.06294,1292.95],[-121.47899,49.06291,1293.08],[-121.47899,49.06288,1293.04],[-121.479,49.06284,1292.89],[-121.47904,49.06279,1292.39],[-121.47906,49.06276,1291.56],[-121.47905,49.06273,1290.68],[-121.47905,49.06269,1289.37],[-121.47901,49.06267,1289.25],[-121.47897,49.06264,1288.87],[-121.47895,49.06261,1288.24],[-121.47894,49.06258,1287.49],[-121.47894,49.06254,1286.28],[-121.47893,49.06251,1285.56],[-121.47892,49.06248,1285.34],[-121.47891,49.06245,1285.4],[-121.47885,49.06246,1286.94],[-121.4788,49.06245,1288.26],[-121.47879,49.06243,1288.42],[-121.4788,49.06247,1288.38],[-121.4788,49.0625,1288.56],[-121.47876,49.06248,1289.57],[-121.47872,49.06247,1290.62],[-121.47868,49.06246,1291.66],[-121.47863,49.06246,1293.04],[-121.47861,49.06248,1293.82],[-121.47856,49.06246,1295.07],[-121.47851,49.06248,1296.72],[-121.47848,49.0625,1297.78],[-121.47845,49.06253,1298.9],[-121.47844,49.06257,1299.53],[-121.47839,49.06259,1301.08],[-121.47835,49.06257,1302.04],[-121.47831,49.06257,1303.18],[-121.47827,49.06259,1304.4],[-121.47823,49.0626,1305.53],[-121.47818,49.06262,1306.88],[-121.47814,49.06262,1307.93],[-121.4781,49.06259,1309.12],[-121.47808,49.06257,1309.79],[-121.47808,49.06255,1309.91],[-121.47805,49.06253,1311.0],[-121.47803,49.0625,1312.01],[-121.47807,49.06247,1310.83],[-121.47813,49.06244,1308.95],[-121.47808,49.06246,1310.58],[-121.47805,49.06243,1311.97],[-121.47804,49.06238,1312.86],[-121.47803,49.06235,1313.53],[-121.47804,49.06233,1313.38],[-121.47799,49.06234,1315.05],[-121.47794,49.06234,1316.82],[-121.47791,49.06231,1318.1],[-121.4779,49.06227,1318.72],[-121.4779,49.06224,1318.92],[-121.47793,49.06222,1318.06],[-121.47797,49.06219,1316.62],[-121.47798,49.06216,1316.16],[-121.478,49.06212,1315.36],[-121.47803,49.06209,1314.31],[-121.47797,49.06208,1316.1],[-121.47792,49.06208,1317.63],[-121.47791,49.06205,1317.77],[-121.4779,49.06201,1317.85],[-121.47792,49.06198,1317.09],[-121.47792,49.06195,1316.93],[-121.47792,49.06192,1317.34],[-121.47791,49.06188,1318.36],[-121.4779,49.06184,1319.41],[-121.47789,49.06181,1320.28],[-121.47793,49.06178,1319.52],[-121.47796,49.06175,1319.03],[-121.47799,49.06172,1318.5],[-121.47801,49.06169,1318.28],[-121.478,49.06165,1319.13],[-121.478,49.06161,1319.45],[-121.47799,49.06158,1320.06],[-121.47798,49.06155,1320.67],[-121.47795,49.06152,1322.06],[-121.47793,49.0615,1322.99],[-121.47793,49.06146,1323.34],[-121.47791,49.06149,1323.85],[-121.47788,49.06146,1325.28],[-121.47785,49.06143,1326.73],[-121.47781,49.0614,1328.61],[-121.4778,49.06136,1328.99],[-121.47779,49.06133,1329.28],[-121.47779,49.06129,1329.11],[-121.47778,49.06126,1329.44],[-121.47777,49.06122,1329.73],[-121.47776,49.06119,1330.08],[-121.47775,49.06115,1330.41],[-121.47777,49.06112,1329.39],[-121.4778,49.06109,1327.56],[-121.47782,49.06107,1326.24],[-121.47785,49.06103,1324.04],[-121.47785,49.061,1323.55],[-121.47782,49.06097,1324.69],[-121.4778,49.06094,1325.32],[-121.47779,49.06091,1325.42],[-121.47779,49.06087,1324.84],[-121.47778,49.06083,1324.9],[-121.47777,49.0608,1325.7],[-121.47774,49.06076,1327.7],[-121.47772,49.06073,1328.97],[-121.47771,49.0607,1329.64],[-121.47769,49.06067,1330.8],[-121.47767,49.06064,1331.91],[-121.47763,49.06061,1333.94],[-121.4776,49.06059,1335.39],[-121.47757,49.06056,1336.74],[-121.47753,49.06054,1338.44],[-121.47751,49.06051,1339.05],[-121.47749,49.06048,1339.59],[-121.47746,49.06045,1340.42],[-121.47744,49.06042,1340.81],[-121.47743,49.06039,1340.79],[-121.47741,49.06035,1340.95],[-121.47746,49.06037,1339.44],[-121.47747,49.06034,1338.72],[-121.47744,49.06032,1339.5],[-121.47741,49.06029,1340.09],[-121.47739,49.06026,1340.27],[-121.47739,49.06022,1339.61],[-121.47739,49.06018,1338.94],[-121.47738,49.06014,1338.62],[-121.47737,49.0601,1338.31],[-121.47736,49.06006,1338.01],[-121.47736,49.06002,1337.36],[-121.47735,49.05998,1337.31],[-121.47734,49.05994,1337.55],[-121.47734,49.05991,1337.45],[-121.47733,49.05988,1337.81],[-121.47732,49.05984,1338.21],[-121.47732,49.05981,1338.16],[-121.47733,49.05977,1337.53],[-121.47734,49.05974,1336.85],[-121.47733,49.05971,1337.19],[-121.47731,49.05968,1337.92],[-121.4773,49.05964,1337.89],[-121.4773,49.05961,1337.4],[-121.47732,49.05957,1335.44],[-121.47733,49.05953,1334.1],[-121.47733,49.0595,1333.58],[-121.47733,49.05946,1332.9],[-121.47732,49.05943,1332.91],[-121.47732,49.05939,1331.81],[-121.47731,49.05935,1331.38],[-121.47731,49.05932,1330.55],[-121.4773,49.05927,1329.83],[-121.47729,49.05924,1329.66],[-121.47727,49.05921,1330.13],[-121.47727,49.05918,1329.28],[-121.47724,49.05915,1330.52],[-121.47723,49.05911,1330.32],[-121.47722,49.05908,1330.25],[-121.4772,49.05905,1330.71],[-121.47718,49.05901,1330.86],[-121.47717,49.05898,1330.66],[-121.47714,49.05901,1332.98],[-121.47713,49.05904,1334.3],[-121.47711,49.05901,1334.57],[-121.4771,49.05897,1333.99],[-121.47709,49.05894,1333.64],[-121.47712,49.05893,1331.89],[-121.47716,49.05896,1330.68],[-121.47715,49.05898,1331.69],[-121.47714,49.05895,1331.43],[-121.47714,49.05892,1330.65],[-121.47714,49.05888,1329.76],[-121.47715,49.05885,1328.99],[-121.47716,49.05881,1328.15],[-121.47716,49.05877,1327.77],[-121.47716,49.05874,1327.48],[-121.47715,49.0587,1327.49],[-121.47715,49.05866,1327.09],[-121.47718,49.05865,1325.86],[-121.47719,49.05861,1325.18],[-121.47717,49.05858,1326.47],[-121.47715,49.05853,1328.05],[-121.47713,49.0585,1329.19],[-121.47712,49.05847,1329.98],[-121.47712,49.05844,1330.47],[-121.47714,49.05841,1330.45],[-121.47719,49.05839,1329.57],[-121.47721,49.05836,1329.7],[-121.47722,49.05832,1330.43],[-121.47722,49.05828,1331.58],[-121.47723,49.05824,1332.72],[-121.47723,49.05821,1333.59],[-121.47718,49.05819,1334.65],[-121.47718,49.05816,1335.43],[-121.47718,49.05812,1336.47],[-121.47717,49.05809,1337.31],[-121.47716,49.05805,1338.2],[-121.47715,49.05802,1338.1],[-121.47714,49.05798,1337.94],[-121.47713,49.05795,1337.83],[-121.47711,49.05791,1337.67],[-121.47709,49.05789,1337.6],[-121.47705,49.05787,1337.54],[-121.477,49.05785,1337.47],[-121.47697,49.05782,1337.29],[-121.47696,49.05785,1337.51],[-121.47695,49.05783,1337.37],[-121.47692,49.05783,1337.92],[-121.47689,49.05781,1338.43],[-121.47684,49.05782,1339.62],[-121.47679,49.05781,1340.63],[-121.47684,49.05782,1339.62],[-121.4768,49.05781,1340.41],[-121.47676,49.05778,1341.01],[-121.47672,49.05777,1341.77],[-121.47668,49.05775,1342.42],[-121.47663,49.05773,1344.35],[-121.47661,49.0577,1345.07],[-121.47658,49.05768,1346.42],[-121.47655,49.05765,1347.69],[-121.47652,49.05763,1349.08],[-121.47658,49.05763,1345.94],[-121.47663,49.05767,1343.74],[-121.47659,49.05763,1345.41],[-121.47656,49.0576,1346.7],[-121.47651,49.0576,1349.34],[-121.47648,49.05758,1350.75],[-121.47644,49.05755,1352.63],[-121.47638,49.05754,1355.82],[-121.47633,49.05753,1358.7],[-121.47632,49.0575,1358.97],[-121.47628,49.05751,1361.4],[-121.47625,49.05748,1362.42],[-121.47623,49.05745,1362.69],[-121.47621,49.05742,1362.92],[-121.47616,49.05742,1365.69],[-121.47613,49.0574,1366.72],[-121.47612,49.05736,1365.98],[-121.47609,49.05733,1366.74],[-121.47614,49.05734,1364.27],[-121.47609,49.05732,1366.41],[-121.47604,49.05732,1369.35],[-121.47601,49.0573,1370.45],[-121.476,49.05726,1369.68],[-121.47597,49.05723,1370.39],[-121.47594,49.0572,1370.7],[-121.4759,49.05718,1371.87],[-121.47588,49.05715,1371.33],[-121.47585,49.05713,1371.81],[-121.47584,49.05709,1370.05],[-121.47584,49.05706,1368.33],[-121.47583,49.05702,1366.51],[-121.47582,49.05698,1364.67],[-121.47579,49.05695,1364.35],[-121.47577,49.05691,1363.49],[-121.47574,49.05689,1363.95],[-121.4757,49.05688,1365.24],[-121.47568,49.05688,1366.11],[-121.47566,49.05686,1366.01],[-121.47565,49.05682,1364.47],[-121.47564,49.05679,1363.38],[-121.47562,49.05676,1362.64],[-121.47561,49.05672,1360.97],[-121.47558,49.0567,1360.97],[-121.47556,49.05667,1360.04],[-121.47553,49.05664,1361.11],[-121.47551,49.0566,1361.89],[-121.47549,49.05657,1362.77],[-121.47545,49.05654,1364.75],[-121.47542,49.0565,1366.22],[-121.47538,49.05648,1368.35],[-121.47533,49.05647,1371.1],[-121.47528,49.05645,1373.88],[-121.47524,49.05643,1376.39],[-121.47529,49.05647,1373.32],[-121.47528,49.05643,1373.87],[-121.47526,49.05638,1375.15],[-121.47524,49.05635,1376.61],[-121.47522,49.05631,1378.16],[-121.47521,49.05627,1379.11],[-121.47519,49.05623,1380.7],[-121.47518,49.0562,1381.58],[-121.47516,49.05615,1383.29],[-121.47514,49.05612,1384.85],[-121.47513,49.05609,1385.58],[-121.47518,49.05608,1382.34],[-121.47519,49.05605,1381.69],[-121.47519,49.05601,1381.69],[-121.47521,49.05598,1380.39],[-121.47522,49.05595,1379.74],[-121.47521,49.05591,1380.39],[-121.47521,49.05588,1380.39],[-121.47522,49.05584,1379.74],[-121.47521,49.0558,1380.82],[-121.47523,49.05577,1380.0],[-121.47521,49.05573,1381.71],[-121.47519,49.0557,1383.18],[-121.47516,49.05567,1385.08],[-121.47514,49.05564,1386.34],[-121.47513,49.05561,1387.03],[-121.47511,49.05558,1388.13],[-121.4751,49.05555,1388.73],[-121.47509,49.05551,1389.49],[-121.47507,49.05547,1390.67],[-121.47505,49.05544,1391.75],[-121.47504,49.0554,1392.47],[-121.47503,49.05537,1393.11],[-121.47502,49.05533,1393.82],[-121.475,49.0553,1394.84],[-121.47498,49.05527,1395.66],[-121.47497,49.05523,1395.05],[-121.47496,49.0552,1394.69],[-121.47495,49.05516,1394.04],[-121.47494,49.05513,1393.64],[-121.47493,49.05509,1392.95],[-121.47491,49.05506,1392.89],[-121.47487,49.05505,1394.11],[-121.47481,49.05504,1396.04],[-121.47476,49.05502,1397.27],[-121.47471,49.055,1398.44],[-121.47469,49.055,1399.16],[-121.47468,49.05499,1399.5],[-121.47466,49.05497,1400.14],[-121.47462,49.05495,1401.42],[-121.47463,49.05493,1400.99],[-121.47465,49.05489,1400.19],[-121.47469,49.05484,1398.89],[-121.47471,49.0548,1398.31],[-121.47469,49.05476,1398.76],[-121.4747,49.0548,1398.57],[-121.47473,49.05477,1397.74],[-121.47476,49.05475,1396.76],[-121.47481,49.05475,1395.12],[-121.47484,49.05471,1394.25],[-121.47486,49.05469,1393.71],[-121.47489,49.05466,1392.92],[-121.47492,49.05463,1392.16],[-121.47495,49.0546,1391.42],[-121.47492,49.05459,1392.41],[-121.47491,49.05456,1392.89],[-121.4749,49.05453,1393.37],[-121.4749,49.0545,1393.55],[-121.47487,49.05447,1394.6],[-121.47482,49.05446,1396.11],[-121.47479,49.05443,1397.37],[-121.47484,49.05443,1395.94],[-121.4748,49.05441,1397.54],[-121.4748,49.05439,1397.99],[-121.47481,49.05435,1398.62],[-121.47479,49.05432,1399.85],[-121.47478,49.05429,1400.79],[-121.47473,49.05427,1402.56],[-121.47469,49.05425,1403.86],[-121.47469,49.0543,1402.76],[-121.47473,49.05433,1401.26],[-121.47477,49.05434,1399.94],[-121.4748,49.05432,1399.57],[-121.47483,49.05432,1398.76],[-121.47481,49.0543,1399.76],[-121.47479,49.05429,1400.52],[-121.4748,49.05426,1400.93],[-121.47479,49.05422,1402.09],[-121.47479,49.05418,1402.99],[-121.47479,49.05415,1403.76],[-121.47479,49.05411,1404.87],[-121.47479,49.05408,1405.7],[-121.47479,49.05404,1406.82],[-121.47479,49.05401,1407.65],[-121.47474,49.05399,1409.13],[-121.47469,49.05399,1410.07],[-121.47464,49.05398,1411.28],[-121.4746,49.05396,1412.52],[-121.47455,49.05395,1413.7],[-121.4745,49.05395,1414.64],[-121.47445,49.05394,1415.79],[-121.4744,49.05393,1416.82],[-121.47434,49.05392,1417.96],[-121.4743,49.05391,1418.74],[-121.47426,49.05388,1419.69],[-121.47427,49.05385,1419.65],[-121.47424,49.05383,1420.16],[-121.47419,49.05381,1420.95],[-121.47414,49.0538,1421.83],[-121.47409,49.05379,1422.82],[-121.47409,49.05382,1422.77],[-121.47407,49.05379,1423.2],[-121.47404,49.05375,1423.78],[-121.474,49.05372,1424.48],[-121.47395,49.0537,1425.3],[-121.4739,49.05369,1426.1],[-121.47391,49.05372,1426.03],[-121.47389,49.0537,1426.3],[-121.47386,49.05367,1426.95],[-121.47382,49.05365,1427.8],[-121.47379,49.05364,1428.43],[-121.47374,49.05363,1429.47],[-121.47369,49.05362,1430.44],[-121.47366,49.05364,1431.48],[-121.47364,49.05367,1432.54],[-121.47359,49.05367,1434.72],[-121.47355,49.05366,1437.33],[-121.47353,49.05369,1439.09],[-121.47351,49.05373,1440.81],[-121.47349,49.05376,1442.27],[-121.47347,49.05379,1443.59],[-121.47344,49.05382,1445.28],[-121.4734,49.05383,1447.3],[-121.47336,49.05385,1449.15],[-121.47332,49.05387,1450.73],[-121.47331,49.0539,1451.08],[-121.47331,49.05393,1451.5],[-121.47327,49.05395,1453.34],[-121.47326,49.05399,1454.26],[-121.47326,49.05402,1454.67],[-121.47325,49.05406,1455.58],[-121.47323,49.05402,1455.8],[-121.47327,49.054,1454.02],[-121.47325,49.05403,1455.18],[-121.47324,49.05407,1456.08],[-121.47323,49.05409,1456.72],[-121.47321,49.0541,1457.59],[-121.47317,49.05411,1459.18],[-121.47314,49.05414,1460.64],[-121.4731,49.05416,1462.32],[-121.47305,49.05416,1464.07],[-121.47303,49.05418,1464.81],[-121.47299,49.0542,1466.13],[-121.47295,49.05417,1466.71],[-121.47294,49.05421,1467.64],[-121.47292,49.05418,1467.65],[-121.47292,49.05414,1467.13],[-121.4729,49.05411,1467.31],[-121.47284,49.05412,1468.93],[-121.47283,49.05415,1469.5],[-121.47282,49.05411,1469.32],[-121.47281,49.05406,1469.04],[-121.47278,49.05404,1469.58],[-121.47275,49.05407,1470.8],[-121.47271,49.05405,1471.86],[-121.4727,49.05401,1471.9],[-121.47267,49.05402,1472.95],[-121.47264,49.05399,1473.83],[-121.47262,49.05396,1474.43],[-121.4726,49.05393,1475.11],[-121.47258,49.0539,1475.84],[-121.47257,49.05387,1476.35],[-121.47255,49.05383,1477.41],[-121.4726,49.05384,1475.33],[-121.47256,49.05382,1477.07],[-121.47256,49.05379,1477.26],[-121.47256,49.05375,1477.52],[-121.47255,49.05372,1478.13],[-121.47254,49.05369,1478.74],[-121.47252,49.05366,1479.8],[-121.4725,49.05362,1480.94],[-121.47249,49.05359,1481.24],[-121.47246,49.05357,1482.22],[-121.47243,49.05356,1483.26],[-121.47242,49.05353,1483.33],[-121.47244,49.0535,1482.32],[-121.47248,49.05349,1480.83],[-121.4725,49.05345,1479.84],[-121.47248,49.05343,1480.35],[-121.47244,49.0534,1481.36],[-121.47241,49.05338,1482.09],[-121.47238,49.05335,1482.65],[-121.47235,49.05336,1483.67],[-121.47233,49.05339,1484.68],[-121.47229,49.05341,1486.23],[-121.47226,49.0534,1487.01],[-121.47225,49.05338,1486.99],[-121.47223,49.05337,1487.42],[-121.4722,49.05335,1487.88],[-121.4722,49.05332,1487.65],[-121.47217,49.05332,1488.39],[-121.47215,49.05335,1489.18],[-121.4721,49.05336,1490.73],[-121.47205,49.05336,1492.06],[-121.472,49.05336,1493.39],[-121.47196,49.05335,1494.13],[-121.47193,49.05336,1495.13],[-121.47189,49.05336,1495.88],[-121.47185,49.05337,1496.98],[-121.4718,49.05338,1498.29],[-121.47177,49.05335,1497.76],[-121.47176,49.05332,1497.26],[-121.47171,49.05331,1498.08],[-121.47163,49.05331,1499.73],[-121.47159,49.05334,1501.22],[-121.47153,49.05333,1502.41],[-121.47151,49.05328,1502.35],[-121.47149,49.05332,1503.29],[-121.47147,49.05334,1504.27],[-121.47142,49.05335,1506.04],[-121.47138,49.05337,1508.14],[-121.47133,49.05334,1508.24],[-121.47132,49.05329,1507.41],[-121.4713,49.05325,1507.2],[-121.47128,49.05321,1506.88],[-121.47126,49.05317,1506.46],[-121.47123,49.05313,1506.13],[-121.47121,49.0531,1505.73],[-121.47119,49.05306,1504.99],[-121.47116,49.05303,1505.59],[-121.47113,49.053,1506.34],[-121.4711,49.05297,1507.34],[-121.47108,49.05294,1508.36],[-121.47106,49.05291,1509.3],[-121.47104,49.05288,1510.16],[-121.47103,49.05284,1510.7],[-121.47101,49.0528,1511.45],[-121.47099,49.05277,1512.05],[-121.47097,49.05273,1512.46],[-121.47094,49.0527,1513.01],[-121.4709,49.05272,1513.95],[-121.47087,49.05269,1514.34],[-121.47084,49.05267,1514.71],[-121.47081,49.05264,1515.14],[-121.47079,49.05261,1515.34],[-121.47075,49.05258,1516.05],[-121.47068,49.05255,1517.5],[-121.47061,49.05251,1518.76],[-121.47058,49.05248,1519.19],[-121.47056,49.05244,1519.25],[-121.47054,49.0524,1519.35],[-121.47053,49.05236,1519.22],[-121.4705,49.05234,1519.9],[-121.47047,49.05233,1520.7],[-121.47043,49.05231,1521.73],[-121.4704,49.05228,1522.43],[-121.47037,49.05225,1523.18],[-121.47034,49.05222,1523.99],[-121.47032,49.05219,1524.65],[-121.47035,49.05217,1523.71],[-121.4704,49.05214,1522.17],[-121.47045,49.05212,1520.65],[-121.47049,49.0521,1519.46],[-121.47053,49.05208,1518.29],[-121.47057,49.05206,1517.34],[-121.47061,49.05203,1516.7],[-121.47065,49.05201,1515.96],[-121.4707,49.05199,1514.97],[-121.47075,49.05197,1513.9],[-121.47075,49.05194,1513.67],[-121.47072,49.05192,1513.71],[-121.47073,49.05188,1512.29],[-121.47072,49.05185,1511.59],[-121.47071,49.05182,1510.88],[-121.47068,49.05179,1510.56],[-121.4707,49.05176,1509.25],[-121.47071,49.05173,1508.15],[-121.47069,49.0517,1507.6],[-121.47066,49.05167,1507.22],[-121.47066,49.05161,1506.0],[-121.47066,49.05158,1505.41],[-121.47065,49.05154,1504.73],[-121.47062,49.05151,1504.42],[-121.47056,49.0515,1504.76],[-121.47049,49.05148,1505.39],[-121.47046,49.05146,1505.18],[-121.47047,49.05149,1506.06],[-121.4705,49.05152,1506.46],[-121.4705,49.05153,1506.77]]}}]}
